{"type": "FeatureCollection", "features": [{"type": "Feature", "geometry": {"type": "Polygon", "coordinates": [[[-93.149475, 44.896237], [-93.149373, 44.896211], [-93.148812, 44.896671], [-93.148327, 44.896982], [-93.14726, 44.897467], [-93.14681, 44.897768], [-93.144206, 44.899853], [-93.142731, 44.90094], [-93.14068, 44.902298], [-93.139696, 44.903034], [-93.139107, 44.903346], [-93.139073, 44.90343], [-93.138809, 44.903588], [-93.138629, 44.903623], [-93.138123, 44.903929], [-93.137853, 44.904013], [-93.13743, 44.904265], [-93.13682, 44.904517], [-93.136751, 44.904601], [-93.136744, 44.90473], [-93.136335, 44.904868], [-93.13547, 44.905742], [-93.134736, 44.906739], [-93.134093, 44.907756], [-93.133658, 44.908565], [-93.131389, 44.911788], [-93.13139, 44.912277], [-93.131355, 44.91238], [-93.131231, 44.912499], [-93.13121, 44.912671], [-93.131287, 44.912903], [-93.131246, 44.913026], [-93.13133, 44.913248], [-93.131323, 44.913451], [-93.131289, 44.913564], [-93.13115, 44.913722], [-93.13113, 44.914038], [-93.130964, 44.91421], [-93.130847, 44.914576], [-93.131014, 44.914886], [-93.130813, 44.915015], [-93.130689, 44.915251], [-93.130661, 44.915355], [-93.13071, 44.915414], [-93.130655, 44.915537], [-93.130641, 44.915799], [-93.130427, 44.91613], [-93.130351, 44.916396], [-93.130136, 44.916579], [-93.130102, 44.916722], [-93.129867, 44.917112], [-93.129216, 44.918], [-93.1286, 44.918612], [-93.12842, 44.918711], [-93.127921, 44.9192], [-93.126847, 44.919902], [-93.126556, 44.92004], [-93.126368, 44.920075], [-93.126077, 44.920322], [-93.125675, 44.920529], [-93.125481, 44.920613], [-93.125078, 44.920688], [-93.124808, 44.920954], [-93.12408, 44.921177], [-93.123682, 44.921369], [-93.122977, 44.921385], [-93.122089, 44.921736], [-93.12152, 44.921816], [-93.121076, 44.921994], [-93.119986, 44.922247], [-93.119244, 44.922494], [-93.118758, 44.922534], [-93.118523, 44.922677], [-93.11812, 44.922781], [-93.117746, 44.922959], [-93.117086, 44.92295], [-93.116593, 44.923015], [-93.116177, 44.923188], [-93.115678, 44.923223], [-93.114783, 44.92351], [-93.114387, 44.923786], [-93.113708, 44.924088], [-93.113375, 44.924349], [-93.113209, 44.924429], [-93.112744, 44.924508], [-93.112459, 44.924686], [-93.111773, 44.924982], [-93.111461, 44.92515], [-93.111128, 44.925437], [-93.110809, 44.925629], [-93.110351, 44.925827], [-93.110074, 44.926217], [-93.1097, 44.926543], [-93.108522, 44.927792], [-93.10758, 44.928651], [-93.107406, 44.928868], [-93.106477, 44.929505], [-93.104945, 44.930739], [-93.104467, 44.931189], [-93.104148, 44.931396], [-93.10324, 44.932511], [-93.103199, 44.932659], [-93.102458, 44.933464], [-93.102132, 44.933967], [-93.101945, 44.934115], [-93.101799, 44.934209], [-93.101383, 44.93421], [-93.101292, 44.933958], [-93.101055, 44.933687], [-93.100882, 44.933618], [-93.100785, 44.933633], [-93.099057, 44.934483], [-93.098856, 44.934597], [-93.098593, 44.934838], [-93.098267, 44.935174], [-93.098288, 44.935238], [-93.098809, 44.93547], [-93.098948, 44.935479], [-93.100314, 44.934551], [-93.100758, 44.934393], [-93.101057, 44.934461], [-93.10105, 44.934629], [-93.10096, 44.934807], [-93.100697, 44.935113], [-93.100538, 44.935463], [-93.100351, 44.935646], [-93.099866, 44.936435], [-93.096655, 44.938978], [-93.095365, 44.939822], [-93.094796, 44.940035], [-93.094289, 44.940114], [-93.093512, 44.940125], [-93.091756, 44.940683], [-93.090382, 44.941242], [-93.08966, 44.941617], [-93.088466, 44.942097], [-93.088369, 44.942245], [-93.088245, 44.942294], [-93.088029, 44.94223], [-93.088016, 44.942506], [-93.087933, 44.94262], [-93.08719, 44.94301], [-93.086371, 44.943282], [-93.085337, 44.943771], [-93.082734, 44.944744], [-93.081902, 44.944983], [-93.081811, 44.944863], [-93.080075, 44.945318], [-93.079437, 44.945565], [-93.078923, 44.945704], [-93.077882, 44.945897], [-93.077569, 44.945853], [-93.07743, 44.945877], [-93.076694, 44.946124], [-93.07609, 44.946233], [-93.075646, 44.946258], [-93.075493, 44.946347], [-93.07516, 44.946402], [-93.072799, 44.946438], [-93.069771, 44.946035], [-93.068194, 44.945711], [-93.06702, 44.945406], [-93.064706, 44.944583], [-93.064491, 44.94446], [-93.064407, 44.944317], [-93.064497, 44.9441], [-93.064532, 44.943844], [-93.064483, 44.943434], [-93.064177, 44.943045], [-93.063308, 44.942759], [-93.063211, 44.942764], [-93.063184, 44.942868], [-93.063997, 44.944135], [-93.063143, 44.943687], [-93.060468, 44.942549], [-93.059113, 44.941642], [-93.058369, 44.940947], [-93.058063, 44.94073], [-93.056249, 44.93903], [-93.055874, 44.938502], [-93.054956, 44.937536], [-93.054233, 44.936614], [-93.053337, 44.935717], [-93.05285, 44.935076], [-93.052656, 44.93477], [-93.052287, 44.933971], [-93.051883, 44.932837], [-93.051667, 44.932024], [-93.051576, 44.931442], [-93.051388, 44.930776], [-93.051227, 44.929518], [-93.051213, 44.929045], [-93.05131, 44.928507], [-93.051379, 44.928182], [-93.051504, 44.927985], [-93.051947, 44.92685], [-93.052092, 44.926253], [-93.052958, 44.923831], [-93.052923, 44.923604], [-93.052971, 44.923476], [-93.053228, 44.92322], [-93.053207, 44.923057], [-93.053588, 44.922519], [-93.053741, 44.922425], [-93.05413, 44.922435], [-93.054283, 44.92276], [-93.054401, 44.922898], [-93.056193, 44.923647], [-93.057318, 44.924041], [-93.058693, 44.924652], [-93.058873, 44.924647], [-93.05947, 44.923877], [-93.054164, 44.921651], [-93.053497, 44.921242], [-93.053455, 44.921173], [-93.053483, 44.920872], [-93.053337, 44.920408], [-93.052794, 44.919462], [-93.051801, 44.918505], [-93.051238, 44.917874], [-93.050154, 44.916405], [-93.050064, 44.916385], [-93.049987, 44.916297], [-93.050022, 44.916104], [-93.049924, 44.915956], [-93.049445, 44.915459], [-93.049035, 44.914773], [-93.048861, 44.91466], [-93.048694, 44.914241], [-93.047923, 44.91324], [-93.047673, 44.913018], [-93.047433, 44.912712], [-93.047112, 44.912034], [-93.046747, 44.911609], [-93.046556, 44.911474], [-93.046078, 44.910543], [-93.045722, 44.909994], [-93.045158, 44.909372], [-93.044784, 44.908558], [-93.044471, 44.90801], [-93.044332, 44.907566], [-93.044306, 44.907215], [-93.044071, 44.906586], [-93.043993, 44.906216], [-93.044071, 44.906222], [-93.044392, 44.906543], [-93.045148, 44.907461], [-93.045156, 44.907559], [-93.04526, 44.907658], [-93.045399, 44.90759], [-93.045399, 44.907405], [-93.045304, 44.907257], [-93.04487, 44.906968], [-93.044626, 44.906413], [-93.043923, 44.905914], [-93.04381, 44.905772], [-93.043645, 44.905439], [-93.04355, 44.905076], [-93.043324, 44.90478], [-93.04302, 44.904077], [-93.042247, 44.90327], [-93.040659, 44.901963], [-93.040199, 44.901668], [-93.038923, 44.900676], [-93.038203, 44.900343], [-93.037934, 44.90009], [-93.037673, 44.899942], [-93.034533, 44.89743], [-93.033978, 44.897104], [-93.033391, 44.89683], [-93.026803, 44.894465], [-93.02636, 44.89426], [-93.025974, 44.894031], [-93.025307, 44.8935], [-93.024534, 44.892797], [-93.0234, 44.892071], [-93.023255, 44.891728], [-93.022982, 44.891362], [-93.022113, 44.890351], [-93.021759, 44.890048], [-93.021212, 44.889305], [-93.020649, 44.888413], [-93.020214, 44.888007], [-93.019933, 44.887641], [-93.019868, 44.88751], [-93.019844, 44.887258], [-93.019514, 44.886938], [-93.019192, 44.886458], [-93.018991, 44.886035], [-93.018983, 44.885669], [-93.018589, 44.884995], [-93.018516, 44.884618], [-93.017961, 44.883835], [-93.017921, 44.883589], [-93.017712, 44.883354], [-93.017522, 44.882904], [-93.017623, 44.882286], [-93.017495, 44.882217], [-93.017301, 44.881891], [-93.016915, 44.880479], [-93.016867, 44.879622], [-93.016931, 44.879365], [-93.016971, 44.878336], [-93.017011, 44.878141], [-93.017156, 44.877924], [-93.017059, 44.87749], [-93.017075, 44.877352], [-93.016681, 44.875963], [-93.016399, 44.87538], [-93.016375, 44.874957], [-93.016053, 44.873843], [-93.016085, 44.873654], [-93.01627, 44.873431], [-93.016262, 44.873271], [-93.015924, 44.872814], [-93.015811, 44.872574], [-93.015747, 44.871962], [-93.015546, 44.871573], [-93.015345, 44.870967], [-93.01522, 44.870816], [-93.015224, 44.870522], [-93.015329, 44.87047], [-93.015747, 44.870419], [-93.01806, 44.870412], [-93.018743, 44.870315], [-93.018984, 44.870326], [-93.018976, 44.870275], [-93.020769, 44.870263], [-93.020769, 44.870154], [-93.022352, 44.870143], [-93.022344, 44.86984], [-93.020769, 44.869834], [-93.020769, 44.869566], [-93.019257, 44.86956], [-93.018027, 44.869435], [-93.016524, 44.869458], [-93.015819, 44.869132], [-93.015408, 44.868864], [-93.01499, 44.86867], [-93.01495, 44.868601], [-93.015151, 44.867989], [-93.015183, 44.867395], [-93.015358, 44.866588], [-93.015543, 44.8664], [-93.015615, 44.866011], [-93.015518, 44.865559], [-93.015582, 44.864622], [-93.015944, 44.863753], [-93.016048, 44.863684], [-93.016217, 44.863696], [-93.016346, 44.864119], [-93.016378, 44.864467], [-93.01641, 44.864524], [-93.016507, 44.864433], [-93.016659, 44.864462], [-93.016732, 44.864536], [-93.016812, 44.864827], [-93.016756, 44.865725], [-93.016491, 44.866342], [-93.016491, 44.86664], [-93.01658, 44.866634], [-93.016716, 44.866445], [-93.016853, 44.866914], [-93.016829, 44.867251], [-93.017078, 44.867508], [-93.017207, 44.867817], [-93.017376, 44.868028], [-93.017641, 44.868989], [-93.017489, 44.869189], [-93.017561, 44.869263], [-93.01777, 44.869297], [-93.017947, 44.869315], [-93.018019, 44.869275], [-93.018011, 44.869166], [-93.018076, 44.869074], [-93.017794, 44.868686], [-93.017794, 44.8684], [-93.01773, 44.868148], [-93.017665, 44.868034], [-93.017537, 44.867966], [-93.017456, 44.867857], [-93.017577, 44.867605], [-93.017464, 44.867548], [-93.017408, 44.867228], [-93.017271, 44.867125], [-93.017239, 44.867034], [-93.017359, 44.866959], [-93.017271, 44.866296], [-93.017295, 44.866153], [-93.017416, 44.866159], [-93.017777, 44.866399], [-93.018163, 44.866496], [-93.018292, 44.866525], [-93.01834, 44.866411], [-93.018308, 44.866313], [-93.017906, 44.866228], [-93.017801, 44.866096], [-93.017287, 44.865822], [-93.017214, 44.865713], [-93.017206, 44.865593], [-93.017255, 44.865376], [-93.017351, 44.865216], [-93.017544, 44.865216], [-93.018155, 44.864964], [-93.018098, 44.864924], [-93.018114, 44.864656], [-93.018211, 44.86437], [-93.018002, 44.864238], [-93.017785, 44.864284], [-93.017536, 44.864244], [-93.017278, 44.864576], [-93.017182, 44.864536], [-93.016949, 44.864113], [-93.016691, 44.863513], [-93.016836, 44.863215], [-93.016659, 44.862467], [-93.016619, 44.862095], [-93.016506, 44.861798], [-93.01653, 44.861586], [-93.016425, 44.861438], [-93.016401, 44.861175], [-93.016176, 44.86086], [-93.015855, 44.860535], [-93.01579, 44.860386], [-93.01567, 44.86002], [-93.015661, 44.85986], [-93.015452, 44.859437], [-93.015444, 44.859163], [-93.015283, 44.858894], [-93.015308, 44.858745], [-93.01505, 44.858042], [-93.014978, 44.857865], [-93.014833, 44.857894], [-93.014785, 44.857676], [-93.014962, 44.857574], [-93.014841, 44.857402], [-93.014704, 44.857339], [-93.014527, 44.857345], [-93.014061, 44.856693], [-93.012534, 44.854967], [-93.012389, 44.854567], [-93.012172, 44.85423], [-93.012309, 44.854104], [-93.012598, 44.854127], [-93.012743, 44.854018], [-93.012252, 44.853772], [-93.012156, 44.853624], [-93.012196, 44.853487], [-93.012437, 44.853361], [-93.012493, 44.853247], [-93.012124, 44.853212], [-93.011939, 44.853115], [-93.011842, 44.852789], [-93.011915, 44.852498], [-93.011794, 44.852292], [-93.011818, 44.852172], [-93.011874, 44.852012], [-93.012115, 44.851675], [-93.012051, 44.851126], [-93.012356, 44.850554], [-93.012364, 44.850371], [-93.012533, 44.850051], [-93.012533, 44.849942], [-93.012653, 44.849811], [-93.01283, 44.849719], [-93.013127, 44.849651], [-93.013827, 44.849594], [-93.013891, 44.849691], [-93.013714, 44.849862], [-93.013594, 44.850068], [-93.013345, 44.850205], [-93.013288, 44.850645], [-93.013337, 44.851011], [-93.013297, 44.851269], [-93.013128, 44.851674], [-93.013007, 44.851795], [-93.012975, 44.851915], [-93.013015, 44.851983], [-93.013337, 44.851423], [-93.013457, 44.851068], [-93.013602, 44.850897], [-93.013562, 44.850651], [-93.013658, 44.850371], [-93.013899, 44.850211], [-93.014413, 44.849674], [-93.014132, 44.849576], [-93.014156, 44.849485], [-93.01451, 44.849342], [-93.014718, 44.849353], [-93.014702, 44.849462], [-93.01455, 44.849708], [-93.014759, 44.850188], [-93.014783, 44.850342], [-93.014767, 44.850508], [-93.01459, 44.850868], [-93.014598, 44.851017], [-93.014389, 44.85136], [-93.01447, 44.851726], [-93.014414, 44.85232], [-93.014502, 44.852755], [-93.014615, 44.852812], [-93.014695, 44.852726], [-93.014623, 44.852446], [-93.014655, 44.851869], [-93.014888, 44.850823], [-93.014992, 44.850731], [-93.015129, 44.850714], [-93.01553, 44.850857], [-93.015555, 44.850742], [-93.015402, 44.850565], [-93.015113, 44.85056], [-93.015032, 44.850474], [-93.01512, 44.850137], [-93.015112, 44.849976], [-93.01496, 44.849622], [-93.015032, 44.849153], [-93.015192, 44.848873], [-93.015112, 44.84857], [-93.015353, 44.848107], [-93.015353, 44.847964], [-93.015248, 44.847701], [-93.015401, 44.84705], [-93.015377, 44.846404], [-93.015481, 44.845838], [-93.0154, 44.845095], [-93.0154, 44.84422], [-93.015279, 44.843751], [-93.015287, 44.84358], [-93.015159, 44.843288], [-93.015119, 44.842751], [-93.014926, 44.842242], [-93.014933, 44.841282], [-93.014756, 44.84051], [-93.014676, 44.840333], [-93.01462, 44.83991], [-93.014507, 44.839613], [-93.014451, 44.839224], [-93.014467, 44.838738], [-93.01437, 44.838612], [-93.014234, 44.838172], [-93.014121, 44.838064], [-93.013896, 44.837955], [-93.013679, 44.837641], [-93.014033, 44.837543], [-93.014016, 44.837475], [-93.013735, 44.837475], [-93.013735, 44.837361], [-93.013912, 44.837218], [-93.014089, 44.836926], [-93.014, 44.836547], [-93.014032, 44.836255], [-93.013992, 44.835735], [-93.013904, 44.835541], [-93.013887, 44.835306], [-93.013823, 44.835055], [-93.013678, 44.834918], [-93.013357, 44.834415], [-93.012923, 44.833546], [-93.012569, 44.832368], [-93.012368, 44.832088], [-93.012175, 44.831379], [-93.011757, 44.830368], [-93.011709, 44.829727], [-93.011548, 44.829413], [-93.011275, 44.828178], [-93.010905, 44.827144], [-93.010535, 44.82556], [-93.010624, 44.823748], [-93.010712, 44.823497], [-93.010639, 44.823228], [-93.010985, 44.822656], [-93.011234, 44.821685], [-93.011804, 44.82073], [-93.012109, 44.820021], [-93.012221, 44.819055], [-93.012285, 44.818935], [-93.012486, 44.818843], [-93.013064, 44.818689], [-93.013401, 44.818517], [-93.013185, 44.818226], [-93.013474, 44.818009], [-93.01398, 44.817854], [-93.014084, 44.8177], [-93.014301, 44.817597], [-93.014606, 44.817323], [-93.015007, 44.816762], [-93.015015, 44.816436], [-93.014895, 44.816191], [-93.014678, 44.816139], [-93.014533, 44.816294], [-93.014437, 44.816762], [-93.013995, 44.817208], [-93.013795, 44.817351], [-93.013233, 44.817597], [-93.013016, 44.81778], [-93.01259, 44.81794], [-93.012036, 44.818266], [-93.01161, 44.818683], [-93.011434, 44.819038], [-93.011362, 44.819621], [-93.011257, 44.819941], [-93.011265, 44.820421], [-93.011081, 44.820776], [-93.01068, 44.822593], [-93.010631, 44.822685], [-93.010455, 44.822736], [-93.01031, 44.822525], [-93.010037, 44.821656], [-93.009828, 44.821142], [-93.009707, 44.820982], [-93.009675, 44.820804], [-93.009739, 44.82045], [-93.009715, 44.820238], [-93.009426, 44.81933], [-93.00933, 44.818746], [-93.009185, 44.818415], [-93.009096, 44.816894], [-93.008936, 44.816277], [-93.008887, 44.815785], [-93.008751, 44.815551], [-93.008719, 44.815031], [-93.008775, 44.814596], [-93.008646, 44.814202], [-93.008702, 44.81395], [-93.008879, 44.813539], [-93.008831, 44.81319], [-93.008895, 44.813047], [-93.009104, 44.812961], [-93.009746, 44.81251], [-93.010148, 44.81207], [-93.010035, 44.812007], [-93.009858, 44.812064], [-93.009489, 44.812413], [-93.009144, 44.812618], [-93.008823, 44.812956], [-93.00867, 44.812979], [-93.00863, 44.812847], [-93.008823, 44.811984], [-93.009063, 44.811441], [-93.009593, 44.810909], [-93.009786, 44.810635], [-93.009818, 44.810475], [-93.010027, 44.810378], [-93.010115, 44.810126], [-93.01034, 44.810075], [-93.010573, 44.809937], [-93.011617, 44.80916], [-93.012829, 44.807633], [-93.013848, 44.806639], [-93.015181, 44.805581], [-93.015639, 44.804998], [-93.016369, 44.804369], [-93.016634, 44.803974], [-93.01738, 44.803185], [-93.017878, 44.802917], [-93.018135, 44.802619], [-93.018272, 44.802636], [-93.018617, 44.802448], [-93.019179, 44.801819], [-93.019556, 44.801607], [-93.02007, 44.801053], [-93.020174, 44.801064], [-93.020335, 44.801241], [-93.021017, 44.800892], [-93.021137, 44.800681], [-93.020961, 44.800481], [-93.020928, 44.800355], [-93.021113, 44.799572], [-93.021362, 44.799406], [-93.021498, 44.799177], [-93.021747, 44.798937], [-93.021811, 44.798697], [-93.021971, 44.798429], [-93.022477, 44.79792], [-93.022846, 44.797382], [-93.022999, 44.797285], [-93.023103, 44.797336], [-93.023207, 44.797308], [-93.023231, 44.797154], [-93.023143, 44.796999], [-93.023151, 44.796862], [-93.023368, 44.796593], [-93.02348, 44.79637], [-93.023737, 44.796119], [-93.023817, 44.795799], [-93.024098, 44.79545], [-93.024194, 44.79517], [-93.024411, 44.794781], [-93.024379, 44.794701], [-93.024451, 44.794512], [-93.024571, 44.794426], [-93.024699, 44.794112], [-93.024924, 44.793746], [-93.02498, 44.793243], [-93.025116, 44.792809], [-93.025734, 44.792225], [-93.025702, 44.791654], [-93.025244, 44.790362], [-93.025316, 44.790305], [-93.02534, 44.790185], [-93.025115, 44.789619], [-93.025074, 44.788841], [-93.024873, 44.788058], [-93.024616, 44.787361], [-93.02456, 44.786967], [-93.024367, 44.786544], [-93.024367, 44.786383], [-93.023885, 44.785423], [-93.023748, 44.785023], [-93.023403, 44.784286], [-93.023068, 44.783915], [-93.022858, 44.783779], [-93.022668, 44.783766], [-93.022374, 44.783516], [-93.022295, 44.78332], [-93.022407, 44.783063], [-93.022407, 44.782731], [-93.022359, 44.782542], [-93.021965, 44.781828], [-93.021339, 44.781136], [-93.021074, 44.780713], [-93.020905, 44.780027], [-93.020873, 44.77945], [-93.020712, 44.779347], [-93.020632, 44.779176], [-93.020592, 44.778987], [-93.0206, 44.778553], [-93.020447, 44.77833], [-93.020359, 44.777981], [-93.020246, 44.77785], [-93.019957, 44.777672], [-93.019805, 44.777484], [-93.019764, 44.777318], [-93.019178, 44.776667], [-93.01897, 44.776369], [-93.018761, 44.775912], [-93.018295, 44.775335], [-93.017926, 44.775066], [-93.017757, 44.774826], [-93.017284, 44.774443], [-93.01693, 44.7743], [-93.016818, 44.774192], [-93.016818, 44.774077], [-93.016946, 44.774083], [-93.021465, 44.7747], [-93.021802, 44.7747], [-93.021946, 44.774642], [-93.022131, 44.773813], [-93.016585, 44.773031], [-93.015397, 44.772917], [-93.015028, 44.772734], [-93.0138, 44.772506], [-93.012701, 44.772174], [-93.010654, 44.771511], [-93.01014, 44.771306], [-93.010028, 44.771197], [-93.010421, 44.771208], [-93.011256, 44.771471], [-93.011762, 44.771466], [-93.011657, 44.771305], [-93.011256, 44.770955], [-93.010879, 44.770898], [-93.010188, 44.770692], [-93.009579, 44.770686], [-93.009113, 44.770749], [-93.008752, 44.770704], [-93.008656, 44.770795], [-93.008423, 44.770789], [-93.007275, 44.770601], [-93.007147, 44.770464], [-93.00697, 44.770504], [-93.006762, 44.770692], [-93.006489, 44.770452], [-93.006272, 44.77038], [-93.001352, 44.770906], [-93.000856, 44.77115], [-92.999299, 44.771773], [-92.99901, 44.771807], [-92.998488, 44.771676], [-92.997774, 44.77175], [-92.99732, 44.77186], [-92.996461, 44.771597], [-92.996093, 44.771842], [-92.995952, 44.772024], [-92.995142, 44.77247], [-92.994106, 44.772916], [-92.992574, 44.773259], [-92.99202, 44.773459], [-92.991233, 44.773533], [-92.989989, 44.773796], [-92.989484, 44.77383], [-92.989074, 44.773802], [-92.988424, 44.773573], [-92.988168, 44.773424], [-92.986836, 44.773018], [-92.984613, 44.771943], [-92.983481, 44.77164], [-92.982133, 44.771063], [-92.981475, 44.770868], [-92.980504, 44.770708], [-92.980151, 44.770588], [-92.978835, 44.770376], [-92.978434, 44.770222], [-92.977889, 44.769861], [-92.977487, 44.769684], [-92.977483, 44.769646], [-92.972781, 44.767656], [-92.972775, 44.767775], [-92.97296, 44.768049], [-92.972984, 44.768215], [-92.973008, 44.768489], [-92.972911, 44.768947], [-92.972718, 44.769255], [-92.97255, 44.769718], [-92.972445, 44.769838], [-92.97214, 44.76997], [-92.971763, 44.76989], [-92.97125, 44.769627], [-92.970841, 44.769238], [-92.970199, 44.768895], [-92.97003, 44.768637], [-92.969589, 44.768317], [-92.968795, 44.767905], [-92.968506, 44.767637], [-92.968033, 44.767579], [-92.967592, 44.767425], [-92.967319, 44.767139], [-92.966854, 44.766956], [-92.966822, 44.766876], [-92.967143, 44.766864], [-92.967616, 44.767007], [-92.967905, 44.76703], [-92.968547, 44.767236], [-92.96959, 44.767488], [-92.970039, 44.767648], [-92.970544, 44.767911], [-92.970978, 44.767917], [-92.971098, 44.767963], [-92.971074, 44.768032], [-92.970825, 44.768146], [-92.970713, 44.768249], [-92.970608, 44.768466], [-92.97064, 44.76858], [-92.970977, 44.768798], [-92.971098, 44.768746], [-92.971041, 44.768632], [-92.970817, 44.768466], [-92.970865, 44.768329], [-92.97109, 44.768157], [-92.971379, 44.768112], [-92.971467, 44.768055], [-92.971323, 44.767769], [-92.97158, 44.76766], [-92.97158, 44.767409], [-92.971508, 44.767277], [-92.971572, 44.767197], [-92.971748, 44.767283], [-92.971925, 44.767569], [-92.971933, 44.767803], [-92.971547, 44.768409], [-92.971419, 44.768701], [-92.97141, 44.769095], [-92.971475, 44.769227], [-92.971627, 44.769192], [-92.971667, 44.769112], [-92.971651, 44.768701], [-92.97178, 44.768301], [-92.972085, 44.768249], [-92.972318, 44.767912], [-92.972222, 44.767317], [-92.972182, 44.76722], [-92.972061, 44.767146], [-92.971989, 44.766969], [-92.972121, 44.766895], [-92.971297, 44.766525], [-92.96425, 44.763914], [-92.962146, 44.763239], [-92.959685, 44.762699], [-92.957328, 44.762443], [-92.952216, 44.762343], [-92.945271, 44.763982], [-92.942619, 44.764445], [-92.939625, 44.764679], [-92.939548, 44.765005], [-92.939403, 44.765281], [-92.938686, 44.766438], [-92.937804, 44.767486], [-92.937078, 44.768161], [-92.935606, 44.76878], [-92.935161, 44.769035], [-92.93429, 44.769289], [-92.93279, 44.769895], [-92.931541, 44.770073], [-92.931067, 44.770204], [-92.930719, 44.770383], [-92.930302, 44.770521], [-92.929983, 44.77061], [-92.929751, 44.770596], [-92.929364, 44.770713], [-92.927118, 44.771573], [-92.926247, 44.771766], [-92.925047, 44.772109], [-92.923943, 44.772247], [-92.923478, 44.772414], [-92.922442, 44.772682], [-92.922159, 44.772675], [-92.919548, 44.773015], [-92.917485, 44.773221], [-92.917133, 44.7733], [-92.916363, 44.773354], [-92.915781, 44.773342], [-92.914959, 44.773244], [-92.913897, 44.773426], [-92.912699, 44.77348], [-92.908145, 44.773196], [-92.904859, 44.772778], [-92.903293, 44.772649], [-92.902026, 44.77244], [-92.901102, 44.772062], [-92.900136, 44.771518], [-92.899212, 44.771097], [-92.899015, 44.770926], [-92.898682, 44.770736], [-92.898085, 44.769754], [-92.897871, 44.769669], [-92.897477, 44.769382], [-92.896904, 44.769216], [-92.895032, 44.768154], [-92.894792, 44.767897], [-92.893587, 44.767146], [-92.893185, 44.766768], [-92.89298, 44.76667], [-92.892031, 44.765913], [-92.891459, 44.765522], [-92.891374, 44.765236], [-92.891425, 44.764998], [-92.89158, 44.764974], [-92.891725, 44.764888], [-92.891837, 44.764724], [-92.892206, 44.763822], [-92.892635, 44.763621], [-92.89278, 44.763505], [-92.892798, 44.763371], [-92.892661, 44.763249], [-92.891994, 44.763249], [-92.89148, 44.76337], [-92.891326, 44.763461], [-92.891197, 44.763797], [-92.890982, 44.764138], [-92.89033, 44.764771], [-92.89021, 44.76482], [-92.890005, 44.76482], [-92.889577, 44.764624], [-92.888894, 44.76405], [-92.888655, 44.76366], [-92.888484, 44.763489], [-92.887057, 44.762494], [-92.886629, 44.762127], [-92.885707, 44.761102], [-92.885135, 44.760632], [-92.884699, 44.760376], [-92.883725, 44.759301], [-92.882324, 44.757958], [-92.882059, 44.757745], [-92.881281, 44.757348], [-92.880461, 44.75678], [-92.879778, 44.756145], [-92.879522, 44.755827], [-92.878625, 44.755144], [-92.878095, 44.754893], [-92.877778, 44.754844], [-92.877436, 44.754874], [-92.876408, 44.755373], [-92.870898, 44.758483], [-92.870478, 44.758933], [-92.870332, 44.759232], [-92.870263, 44.759506], [-92.870296, 44.759683], [-92.870382, 44.759787], [-92.871552, 44.760648], [-92.87221, 44.761344], [-92.872637, 44.761631], [-92.873005, 44.761607], [-92.873578, 44.761772], [-92.873732, 44.761864], [-92.873766, 44.762004], [-92.873646, 44.762114], [-92.873526, 44.762156], [-92.873269, 44.762107], [-92.872739, 44.762101], [-92.871627, 44.761855], [-92.871114, 44.761422], [-92.870337, 44.760555], [-92.869825, 44.760103], [-92.86945, 44.76031], [-92.871446, 44.762219], [-92.871402, 44.762259], [-92.868985, 44.759892], [-92.868848, 44.760033], [-92.86863, 44.760077], [-92.868985, 44.760426], [-92.868897, 44.76051], [-92.869046, 44.760796], [-92.868883, 44.760854], [-92.869396, 44.761296], [-92.869333, 44.761314], [-92.868589, 44.760661], [-92.868215, 44.760859], [-92.867913, 44.760665], [-92.867656, 44.760683], [-92.867431, 44.760634], [-92.867138, 44.760454], [-92.865122, 44.761609], [-92.865268, 44.76174], [-92.865216, 44.761974], [-92.86606, 44.762765], [-92.866577, 44.763455], [-92.867329, 44.763834], [-92.867953, 44.764371], [-92.86838, 44.764646], [-92.870498, 44.766563], [-92.876626, 44.773611], [-92.881274, 44.777768], [-92.88171, 44.778141], [-92.882761, 44.778904], [-92.882966, 44.779002], [-92.883395, 44.779002], [-92.88348, 44.779106], [-92.883582, 44.77938], [-92.886532, 44.781121], [-92.887396, 44.781677], [-92.888457, 44.782154], [-92.889056, 44.782355], [-92.88968, 44.782533], [-92.892248, 44.783029], [-92.892522, 44.783066], [-92.89325, 44.783018], [-92.893455, 44.783079], [-92.893942, 44.783366], [-92.896946, 44.783991], [-92.899086, 44.784353], [-92.899497, 44.784389], [-92.900704, 44.78436], [-92.903984, 44.784028], [-92.904918, 44.78398], [-92.90556, 44.784023], [-92.906869, 44.784188], [-92.907486, 44.784329], [-92.909582, 44.784977], [-92.911337, 44.785375], [-92.912587, 44.785541], [-92.913837, 44.785615], [-92.915267, 44.78553], [-92.919497, 44.785009], [-92.920173, 44.784985], [-92.920815, 44.78501], [-92.923655, 44.785452], [-92.924477, 44.785528], [-92.925252, 44.785522], [-92.926868, 44.785316], [-92.927662, 44.785138], [-92.928117, 44.784972], [-92.928649, 44.784904], [-92.930837, 44.784388], [-92.932967, 44.783811], [-92.933432, 44.783756], [-92.934119, 44.783591], [-92.935019, 44.783322], [-92.935349, 44.783164], [-92.936085, 44.782696], [-92.936772, 44.782427], [-92.937159, 44.782359], [-92.938233, 44.782311], [-92.938495, 44.782242], [-92.938805, 44.782098], [-92.939027, 44.781919], [-92.939434, 44.781753], [-92.939986, 44.781664], [-92.941825, 44.781512], [-92.942656, 44.781367], [-92.943314, 44.781166], [-92.94413, 44.780631], [-92.944852, 44.779961], [-92.945778, 44.778879], [-92.946076, 44.778265], [-92.946186, 44.777617], [-92.946212, 44.777159], [-92.9461, 44.776885], [-92.945907, 44.776839], [-92.945827, 44.776736], [-92.94586, 44.776479], [-92.946125, 44.776251], [-92.946566, 44.776039], [-92.947008, 44.775433], [-92.94806, 44.774937], [-92.948799, 44.7748], [-92.949537, 44.7746], [-92.950324, 44.774515], [-92.950581, 44.774418], [-92.951271, 44.774344], [-92.952908, 44.774007], [-92.955404, 44.773785], [-92.956786, 44.773744], [-92.957147, 44.773664], [-92.95921, 44.77351], [-92.959619, 44.773499], [-92.960213, 44.773596], [-92.961136, 44.773517], [-92.961409, 44.773534], [-92.961529, 44.773631], [-92.961641, 44.773923], [-92.96189, 44.774266], [-92.962885, 44.77454], [-92.963414, 44.774478], [-92.964024, 44.774552], [-92.964747, 44.774495], [-92.964995, 44.774524], [-92.965902, 44.774421], [-92.966312, 44.774318], [-92.967034, 44.774439], [-92.968109, 44.774353], [-92.96888, 44.774365], [-92.969257, 44.774314], [-92.971616, 44.774343], [-92.972703, 44.774262], [-92.973441, 44.774114], [-92.973786, 44.774097], [-92.974139, 44.774114], [-92.974484, 44.7742], [-92.975664, 44.77424], [-92.975953, 44.774326], [-92.97625, 44.774497], [-92.976587, 44.774566], [-92.976876, 44.774577], [-92.977365, 44.774709], [-92.977991, 44.774703], [-92.978264, 44.774766], [-92.978553, 44.774915], [-92.979187, 44.775087], [-92.97954, 44.775338], [-92.980214, 44.77551], [-92.98104, 44.775619], [-92.982244, 44.776047], [-92.983616, 44.776385], [-92.984363, 44.776711], [-92.985663, 44.77714], [-92.985904, 44.777197], [-92.986489, 44.777214], [-92.986867, 44.7775], [-92.987107, 44.77758], [-92.988215, 44.777815], [-92.988552, 44.777838], [-92.98909, 44.777998], [-92.989443, 44.778215], [-92.989924, 44.778369], [-92.995294, 44.776209], [-92.996417, 44.776014], [-92.997019, 44.775809], [-92.997878, 44.775643], [-92.998279, 44.7755], [-92.998657, 44.775517], [-92.998954, 44.775357], [-92.999499, 44.775374], [-93.000053, 44.77522], [-93.000623, 44.77518], [-93.000856, 44.775083], [-93.001096, 44.77506], [-93.001329, 44.775106], [-93.001875, 44.775048], [-93.003055, 44.775071], [-93.004989, 44.775266], [-93.006385, 44.775517], [-93.007693, 44.775849], [-93.009218, 44.776466], [-93.011345, 44.777432], [-93.011731, 44.777695], [-93.012285, 44.77798], [-93.012774, 44.778466], [-93.013151, 44.77862], [-93.013553, 44.778878], [-93.014773, 44.779764], [-93.015463, 44.780507], [-93.015568, 44.780867], [-93.015696, 44.780935], [-93.016122, 44.780964], [-93.016242, 44.780872], [-93.016146, 44.780787], [-93.015656, 44.780627], [-93.015624, 44.780507], [-93.015712, 44.780427], [-93.015704, 44.780335], [-93.015568, 44.780215], [-93.015182, 44.779581], [-93.015656, 44.779609], [-93.015824, 44.779575], [-93.015824, 44.779472], [-93.015648, 44.779363], [-93.015359, 44.779329], [-93.014677, 44.779341], [-93.014139, 44.778872], [-93.014107, 44.778735], [-93.014203, 44.77862], [-93.0145, 44.778552], [-93.014492, 44.778432], [-93.014002, 44.778094], [-93.013745, 44.777763], [-93.013617, 44.777666], [-93.013464, 44.777626], [-93.013159, 44.777277], [-93.012942, 44.777106], [-93.01267, 44.776946], [-93.01214, 44.776768], [-93.011642, 44.776746], [-93.010222, 44.776066], [-93.010149, 44.775837], [-93.010157, 44.77558], [-93.010013, 44.775305], [-93.009708, 44.774928], [-93.009668, 44.774848], [-93.009692, 44.774608], [-93.009611, 44.774516], [-93.00925, 44.774425], [-93.008969, 44.774454], [-93.008399, 44.774259], [-93.007765, 44.774511], [-93.007228, 44.774619], [-93.006746, 44.774591], [-93.006257, 44.774665], [-93.00588, 44.774848], [-93.005422, 44.774888], [-93.004708, 44.774711], [-93.004162, 44.774271], [-93.003825, 44.774139], [-93.002533, 44.774059], [-93.002124, 44.774402], [-93.00157, 44.774694], [-93.001377, 44.774745], [-93.001193, 44.774723], [-93.000791, 44.774563], [-93.000374, 44.77418], [-93.000189, 44.774111], [-92.999692, 44.774094], [-92.99974, 44.773842], [-92.999901, 44.773694], [-93.000085, 44.773574], [-93.000486, 44.773431], [-93.000527, 44.773179], [-93.000326, 44.773111], [-93.000374, 44.772996], [-93.000551, 44.772859], [-93.001425, 44.772539], [-93.002035, 44.772413], [-93.002565, 44.772385], [-93.005261, 44.772941], [-93.006947, 44.773187], [-93.007204, 44.773289], [-93.007244, 44.773404], [-93.007099, 44.773444], [-93.00677, 44.773438], [-93.006016, 44.773255], [-93.005775, 44.773232], [-93.00559, 44.773284], [-93.00551, 44.773438], [-93.005446, 44.773901], [-93.005197, 44.774181], [-93.005085, 44.774444], [-93.00531, 44.774593], [-93.005518, 44.774616], [-93.005687, 44.774553], [-93.006072, 44.774296], [-93.006473, 44.774364], [-93.006602, 44.774307], [-93.00681, 44.774153], [-93.006851, 44.773998], [-93.006987, 44.773884], [-93.007629, 44.773707], [-93.007717, 44.773375], [-93.010839, 44.774324], [-93.011513, 44.774581], [-93.01234, 44.77501], [-93.012934, 44.775496], [-93.013472, 44.775793], [-93.013632, 44.776073], [-93.014435, 44.776713], [-93.015663, 44.777827], [-93.016274, 44.778502], [-93.016803, 44.779188], [-93.01702, 44.779497], [-93.01747, 44.780325], [-93.017679, 44.780828], [-93.017663, 44.781051], [-93.017952, 44.781823], [-93.01796, 44.78232], [-93.018024, 44.782538], [-93.018129, 44.782766], [-93.018281, 44.782886], [-93.018306, 44.783041], [-93.018265, 44.783235], [-93.018796, 44.784795], [-93.019004, 44.785013], [-93.019221, 44.785373], [-93.019454, 44.786213], [-93.019816, 44.787019], [-93.01992, 44.787408], [-93.020057, 44.788448], [-93.020002, 44.789986], [-93.019954, 44.790369], [-93.019777, 44.791072], [-93.019809, 44.791546], [-93.019689, 44.791844], [-93.019697, 44.791981], [-93.019641, 44.792049], [-93.018936, 44.791759], [-93.018231, 44.791623], [-93.017544, 44.791257], [-93.016725, 44.790565], [-93.016801, 44.791067], [-93.017335, 44.791529], [-93.018116, 44.791813], [-93.018631, 44.791908], [-93.01926, 44.792234], [-93.019425, 44.79289], [-93.019369, 44.793599], [-93.019296, 44.793747], [-93.01847, 44.794799], [-93.018173, 44.795337], [-93.017924, 44.795537], [-93.017338, 44.796309], [-93.017162, 44.796669], [-93.01709, 44.797097], [-93.016953, 44.797378], [-93.01652, 44.798012], [-93.014216, 44.801048], [-93.013992, 44.801517], [-93.013879, 44.80202], [-93.013775, 44.802174], [-93.012884, 44.803323], [-93.012451, 44.803809], [-93.011527, 44.804695], [-93.010331, 44.806039], [-93.008878, 44.807548], [-93.007513, 44.809223], [-93.006718, 44.810315], [-93.005401, 44.812259], [-93.005169, 44.812859], [-93.004205, 44.814717], [-93.003964, 44.815426], [-93.003804, 44.81566], [-93.003539, 44.81586], [-93.003185, 44.815889], [-93.002651, 44.81581], [-93.002233, 44.815653], [-93.002128, 44.815701], [-93.001839, 44.815986], [-93.001537, 44.816139], [-93.001118, 44.816205], [-92.999991, 44.816656], [-92.999801, 44.816639], [-92.999148, 44.816744], [-92.999037, 44.816814], [-92.998612, 44.816924], [-92.998397, 44.816875], [-92.998212, 44.816744], [-92.997886, 44.816735], [-92.997664, 44.816867], [-92.997522, 44.817086], [-92.997565, 44.817178], [-92.997879, 44.817397], [-92.997929, 44.817463], [-92.997923, 44.817572], [-92.998015, 44.817673], [-92.998163, 44.81773], [-92.998741, 44.817835], [-92.998988, 44.817818], [-92.999487, 44.817726], [-92.999942, 44.817458], [-93.000312, 44.817485], [-93.000312, 44.817568], [-93.000121, 44.817686], [-93.000127, 44.817734], [-93.00025, 44.817712], [-93.00086, 44.817485], [-93.000903, 44.817406], [-93.000823, 44.817362], [-93.000293, 44.817366], [-92.999881, 44.8173], [-92.999745, 44.817239], [-92.999819, 44.817134], [-93.001192, 44.81659], [-93.001777, 44.816406], [-93.001925, 44.816227], [-93.002054, 44.816148], [-93.002705, 44.816255], [-93.002896, 44.816495], [-93.003065, 44.816832], [-93.003161, 44.817169], [-93.003466, 44.817518], [-93.003458, 44.817701], [-93.003298, 44.818289], [-93.00325, 44.818815], [-93.003105, 44.819336], [-93.003073, 44.819861], [-93.002832, 44.821462], [-93.002519, 44.8228], [-93.002495, 44.823006], [-93.002535, 44.82316], [-93.00239, 44.82372], [-93.00231, 44.823852], [-93.00231, 44.824092], [-93.002238, 44.824297], [-93.002117, 44.824435], [-93.001796, 44.824566], [-93.001595, 44.824801], [-93.001443, 44.824801], [-93.001266, 44.824629], [-93.000832, 44.824766], [-93.000318, 44.825023], [-92.999676, 44.824863], [-92.999499, 44.824938], [-92.999202, 44.825275], [-92.999282, 44.825401], [-92.999451, 44.825492], [-92.999563, 44.825629], [-92.999587, 44.825778], [-93.000053, 44.82599], [-93.000736, 44.825904], [-93.001539, 44.825595], [-93.002198, 44.825721], [-93.002294, 44.825858], [-93.002286, 44.825978], [-93.001957, 44.82687], [-93.001732, 44.827144], [-93.001668, 44.827299], [-93.002238, 44.828522], [-93.002334, 44.828676], [-93.002511, 44.828785], [-93.002575, 44.829013], [-93.002744, 44.829105], [-93.00268, 44.829362], [-93.002841, 44.829499], [-93.003082, 44.829568], [-93.003162, 44.829785], [-93.003106, 44.8303], [-93.003178, 44.830717], [-93.003371, 44.83098], [-93.003379, 44.831163], [-93.00362, 44.831683], [-93.003853, 44.832403], [-93.004271, 44.833415], [-93.00464, 44.833787], [-93.004608, 44.833954], [-93.004528, 44.834011], [-93.004608, 44.834132], [-93.004849, 44.834234], [-93.00501, 44.83448], [-93.005066, 44.834692], [-93.005042, 44.834852], [-93.004857, 44.835006], [-93.004608, 44.83504], [-93.004448, 44.834995], [-93.004311, 44.835183], [-93.004287, 44.835332], [-93.004367, 44.835469], [-93.00444, 44.835463], [-93.004665, 44.835332], [-93.004793, 44.835103], [-93.004906, 44.835052], [-93.005042, 44.835058], [-93.005114, 44.835126], [-93.005275, 44.835401], [-93.005484, 44.836046], [-93.005878, 44.837013], [-93.00599, 44.837098], [-93.006063, 44.837053], [-93.006135, 44.837115], [-93.006376, 44.837687], [-93.00632, 44.838402], [-93.006521, 44.839128], [-93.006577, 44.839888], [-93.006256, 44.840317], [-93.006151, 44.840345], [-93.006079, 44.840248], [-93.005886, 44.840299], [-93.005758, 44.840419], [-93.005798, 44.840631], [-93.005782, 44.841031], [-93.005573, 44.84118], [-93.005324, 44.841197], [-93.00526, 44.841397], [-93.005541, 44.841814], [-93.005694, 44.841957], [-93.005766, 44.842169], [-93.005919, 44.842272], [-93.006087, 44.842312], [-93.006232, 44.842283], [-93.006248, 44.842066], [-93.00681, 44.841523], [-93.006971, 44.841277], [-93.007035, 44.84154], [-93.007019, 44.842192], [-93.007003, 44.842512], [-93.006891, 44.842775], [-93.006899, 44.843152], [-93.006923, 44.843266], [-93.007084, 44.843495], [-93.007148, 44.844204], [-93.007204, 44.844392], [-93.007381, 44.843929], [-93.007558, 44.844307], [-93.007695, 44.84501], [-93.007759, 44.845141], [-93.007695, 44.845444], [-93.007896, 44.846016], [-93.007799, 44.84617], [-93.007341, 44.846513], [-93.007189, 44.846782], [-93.007309, 44.84685], [-93.007534, 44.846805], [-93.007663, 44.846685], [-93.007775, 44.84645], [-93.008008, 44.846233], [-93.008273, 44.846467], [-93.008563, 44.847033], [-93.008611, 44.847228], [-93.008579, 44.847994], [-93.008491, 44.848394], [-93.008515, 44.848982], [-93.008451, 44.849268], [-93.008346, 44.849383], [-93.008218, 44.84984], [-93.008194, 44.850234], [-93.008009, 44.850823], [-93.007808, 44.851212], [-93.007077, 44.851875], [-93.006771, 44.852258], [-93.006466, 44.85335], [-93.006482, 44.853539], [-93.006707, 44.854122], [-93.006812, 44.854539], [-93.006539, 44.855065], [-93.006507, 44.855305], [-93.006547, 44.856957], [-93.006611, 44.857168], [-93.006909, 44.857483], [-93.006885, 44.857671], [-93.006708, 44.858003], [-93.006689, 44.858364], [-93.006571, 44.858443], [-93.006507, 44.858392], [-93.006097, 44.858558], [-93.006153, 44.85862], [-93.006483, 44.8587], [-93.006563, 44.858598], [-93.006539, 44.858523], [-93.006684, 44.85846], [-93.006917, 44.858843], [-93.007182, 44.859644], [-93.007303, 44.859781], [-93.007488, 44.860307], [-93.007528, 44.860495], [-93.007504, 44.860644], [-93.007415, 44.860735], [-93.007544, 44.861221], [-93.007512, 44.861399], [-93.007657, 44.862142], [-93.007689, 44.862565], [-93.007472, 44.862948], [-93.007464, 44.863085], [-93.00752, 44.863233], [-93.007432, 44.863382], [-93.007183, 44.863559], [-93.007946, 44.863611], [-93.008043, 44.863685], [-93.00822, 44.864057], [-93.008276, 44.864548], [-93.008212, 44.864725], [-93.008397, 44.865005], [-93.008389, 44.865388], [-93.008606, 44.866069], [-93.008405, 44.866235], [-93.008437, 44.866343], [-93.008678, 44.866412], [-93.008758, 44.866549], [-93.008849, 44.867315], [-93.008704, 44.86787], [-93.008881, 44.868036], [-93.008953, 44.868436], [-93.009267, 44.869042], [-93.009356, 44.86943], [-93.009685, 44.869945], [-93.009935, 44.870597], [-93.010506, 44.872271], [-93.010699, 44.872952], [-93.010707, 44.873192], [-93.011447, 44.874935], [-93.011447, 44.875049], [-93.011656, 44.875587], [-93.011704, 44.87597], [-93.011785, 44.876078], [-93.011945, 44.876158], [-93.012195, 44.875975], [-93.012492, 44.87597], [-93.012765, 44.87621], [-93.012774, 44.876381], [-93.012693, 44.876564], [-93.012404, 44.87701], [-93.012508, 44.877182], [-93.01279, 44.878914], [-93.012959, 44.879245], [-93.01308, 44.879771], [-93.013522, 44.880606], [-93.013651, 44.881114], [-93.013804, 44.881474], [-93.014037, 44.88268], [-93.014174, 44.883035], [-93.014512, 44.883658], [-93.014673, 44.884224], [-93.014826, 44.884492], [-93.014818, 44.884704], [-93.015091, 44.885258], [-93.01514, 44.885447], [-93.015099, 44.88559], [-93.015132, 44.885704], [-93.01526, 44.885801], [-93.0153, 44.885973], [-93.015325, 44.886979], [-93.015454, 44.887179], [-93.015896, 44.887373], [-93.016041, 44.887533], [-93.016325, 44.888118], [-93.016435, 44.888568], [-93.016636, 44.888848], [-93.016668, 44.88898], [-93.017127, 44.889408], [-93.017425, 44.890483], [-93.01736, 44.890694], [-93.017722, 44.891152], [-93.017827, 44.891363], [-93.017763, 44.891683], [-93.01769, 44.891855], [-93.017546, 44.891992], [-93.017546, 44.892089], [-93.017707, 44.892175], [-93.017948, 44.892192], [-93.018559, 44.892118], [-93.018736, 44.89214], [-93.019106, 44.892478], [-93.01913, 44.892683], [-93.018953, 44.892895], [-93.018905, 44.893026], [-93.018937, 44.893381], [-93.018881, 44.893644], [-93.018904, 44.894022], [-93.018156, 44.894033], [-93.017606, 44.893903], [-93.017087, 44.893859], [-93.016858, 44.894001], [-93.017148, 44.894326], [-93.017606, 44.894522], [-93.017713, 44.894782], [-93.018034, 44.894956], [-93.018355, 44.895053], [-93.018553, 44.89501], [-93.018691, 44.894586], [-93.018798, 44.894434], [-93.018985, 44.894333], [-93.019195, 44.894695], [-93.021833, 44.895798], [-93.021978, 44.895798], [-93.022139, 44.895878], [-93.02234, 44.896135], [-93.022549, 44.896244], [-93.022984, 44.896347], [-93.023249, 44.896158], [-93.023442, 44.896152], [-93.024592, 44.896541], [-93.024737, 44.896861], [-93.025043, 44.897152], [-93.025638, 44.897484], [-93.026443, 44.898072], [-93.026756, 44.898438], [-93.027135, 44.898712], [-93.027207, 44.898832], [-93.027111, 44.898884], [-93.026129, 44.898495], [-93.025719, 44.898427], [-93.025333, 44.898587], [-93.025148, 44.89873], [-93.025116, 44.898839], [-93.025205, 44.89909], [-93.025929, 44.899359], [-93.026114, 44.899502], [-93.027014, 44.899764], [-93.027296, 44.90005], [-93.027336, 44.90037], [-93.027667, 44.900907], [-93.027956, 44.901079], [-93.028013, 44.901227], [-93.028407, 44.901605], [-93.029067, 44.902027], [-93.029083, 44.902165], [-93.028898, 44.902319], [-93.028978, 44.902416], [-93.029308, 44.902593], [-93.029509, 44.902891], [-93.029662, 44.902988], [-93.030161, 44.902976], [-93.03066, 44.90305], [-93.030829, 44.903113], [-93.03103, 44.903296], [-93.0314, 44.903456], [-93.031738, 44.90369], [-93.032261, 44.903896], [-93.032783, 44.903821], [-93.033258, 44.903901], [-93.033636, 44.903878], [-93.033869, 44.902895], [-93.033901, 44.902158], [-93.033973, 44.901757], [-93.034174, 44.901306], [-93.034165, 44.900957], [-93.034254, 44.900808], [-93.034358, 44.90078], [-93.034784, 44.900831], [-93.035131, 44.901185], [-93.035332, 44.901225], [-93.035372, 44.901008], [-93.035275, 44.900911], [-93.034961, 44.900848], [-93.035026, 44.900602], [-93.035106, 44.900528], [-93.035295, 44.900516], [-93.036078, 44.900763], [-93.036425, 44.901219], [-93.03988, 44.904405], [-93.040062, 44.904769], [-93.040288, 44.905613], [-93.040627, 44.906088], [-93.04107, 44.907438], [-93.041218, 44.90774], [-93.041253, 44.907955], [-93.041461, 44.908338], [-93.041678, 44.908461], [-93.0418, 44.908596], [-93.041444, 44.908751], [-93.041505, 44.908837], [-93.041687, 44.908905], [-93.041965, 44.909102], [-93.042278, 44.909496], [-93.043033, 44.910945], [-93.043572, 44.911758], [-93.043798, 44.912332], [-93.04439, 44.913241], [-93.044294, 44.914139], [-93.044426, 44.914233], [-93.044468, 44.914425], [-93.044274, 44.915692], [-93.044379, 44.916245], [-93.044344, 44.916486], [-93.044372, 44.916901], [-93.044491, 44.917478], [-93.044449, 44.917566], [-93.044477, 44.917793], [-93.044427, 44.917867], [-93.044418, 44.918046], [-93.044497, 44.918379], [-93.044852, 44.918262], [-93.044783, 44.918003], [-93.044805, 44.917746], [-93.044901, 44.917778], [-93.044935, 44.917941], [-93.045401, 44.918168], [-93.045908, 44.918552], [-93.046255, 44.918656], [-93.046366, 44.918828], [-93.046588, 44.918986], [-93.046901, 44.918961], [-93.047019, 44.91903], [-93.047172, 44.919272], [-93.047304, 44.919375], [-93.04763, 44.91942], [-93.047491, 44.919227], [-93.047018, 44.918818], [-93.046157, 44.918315], [-93.045463, 44.917753], [-93.045261, 44.917685], [-93.045192, 44.917542], [-93.04499, 44.916757], [-93.04485, 44.91582], [-93.044843, 44.915312], [-93.044773, 44.915036], [-93.044724, 44.914444], [-93.045474, 44.914286], [-93.045571, 44.91435], [-93.046155, 44.915125], [-93.04628, 44.91544], [-93.046884, 44.91617], [-93.04753, 44.916722], [-93.047676, 44.916949], [-93.048642, 44.918009], [-93.048913, 44.918423], [-93.049177, 44.918719], [-93.049407, 44.919113], [-93.049664, 44.919414], [-93.049956, 44.920262], [-93.05013, 44.920449], [-93.050178, 44.920725], [-93.05013, 44.920854], [-93.0502, 44.9211], [-93.050158, 44.921307], [-93.050047, 44.921372], [-93.049936, 44.921357], [-93.049727, 44.920938], [-93.049644, 44.920928], [-93.049561, 44.921012], [-93.049568, 44.921155], [-93.049749, 44.9215], [-93.049742, 44.921791], [-93.049805, 44.92188], [-93.049846, 44.922146], [-93.049854, 44.922629], [-93.049826, 44.922757], [-93.049667, 44.922787], [-93.049646, 44.922906], [-93.049626, 44.923897], [-93.049529, 44.924262], [-93.049592, 44.92476], [-93.04937, 44.925056], [-93.049433, 44.925268], [-93.049274, 44.925978], [-93.048948, 44.926644], [-93.048615, 44.927078], [-93.048359, 44.927572], [-93.048317, 44.927922], [-93.04813, 44.928494], [-93.048027, 44.929066], [-93.047784, 44.929554], [-93.047763, 44.929712], [-93.04791, 44.930728], [-93.047778, 44.930748], [-93.047904, 44.931448], [-93.048043, 44.931917], [-93.048176, 44.933061], [-93.048767, 44.934999], [-93.049519, 44.936587], [-93.050464, 44.938189], [-93.05173, 44.939757], [-93.053287, 44.941374], [-93.054864, 44.942764], [-93.055448, 44.943128], [-93.0574, 44.943921], [-93.058491, 44.944429], [-93.059727, 44.944887], [-93.060755, 44.945202], [-93.065348, 44.946837], [-93.068356, 44.947752], [-93.069926, 44.948092], [-93.071322, 44.948318], [-93.072482, 44.948416], [-93.073899, 44.948459], [-93.074503, 44.948375], [-93.074663, 44.948419], [-93.076406, 44.94826], [-93.077746, 44.948037], [-93.07994, 44.947538], [-93.080301, 44.947429], [-93.080689, 44.947197], [-93.083605, 44.946258], [-93.087242, 44.944968], [-93.089928, 44.943876], [-93.091913, 44.943332], [-93.092899, 44.943139], [-93.093232, 44.94299], [-93.094641, 44.942614], [-93.095432, 44.942214], [-93.097207, 44.941064], [-93.098865, 44.939829], [-93.09892, 44.939686], [-93.099787, 44.938906], [-93.100668, 44.938259], [-93.101285, 44.937988], [-93.10175, 44.937681], [-93.103968, 44.935667], [-93.10541, 44.934236], [-93.10568, 44.933713], [-93.106234, 44.9331], [-93.106497, 44.932671], [-93.107641, 44.931679], [-93.108923, 44.930307], [-93.109269, 44.93], [-93.109373, 44.929981], [-93.109429, 44.93003], [-93.109596, 44.930291], [-93.109652, 44.930414], [-93.109624, 44.930572], [-93.109791, 44.930508], [-93.110103, 44.930286], [-93.110103, 44.930167], [-93.110782, 44.929747], [-93.111157, 44.929673], [-93.111323, 44.929584], [-93.111559, 44.929397], [-93.112807, 44.928656], [-93.114958, 44.927751], [-93.115103, 44.927672], [-93.115318, 44.927435], [-93.11529, 44.927331], [-93.115172, 44.927243], [-93.114818, 44.927208], [-93.113624, 44.927555], [-93.112917, 44.927911], [-93.111502, 44.928504], [-93.111218, 44.928706], [-93.110406, 44.929003], [-93.110274, 44.929181], [-93.110011, 44.92924], [-93.109913, 44.929147], [-93.109899, 44.929038], [-93.110204, 44.928584], [-93.111111, 44.927641], [-93.111805, 44.927108], [-93.112637, 44.926619], [-93.113261, 44.926322], [-93.114218, 44.926045], [-93.114718, 44.925838], [-93.11501, 44.925906], [-93.115155, 44.925877], [-93.115363, 44.925719], [-93.115377, 44.92564], [-93.115141, 44.925472], [-93.115168, 44.925413], [-93.1153, 44.925378], [-93.115432, 44.925408], [-93.115627, 44.925531], [-93.115925, 44.925511], [-93.117285, 44.925085], [-93.117875, 44.925159], [-93.117917, 44.925351], [-93.118014, 44.925326], [-93.118139, 44.925203], [-93.11802, 44.92469], [-93.1187, 44.924423], [-93.119282, 44.924131], [-93.120018, 44.923933], [-93.121058, 44.923385], [-93.12153, 44.923365], [-93.121974, 44.923433], [-93.122245, 44.923216], [-93.122668, 44.923176], [-93.123292, 44.922865], [-93.123701, 44.922721], [-93.12452, 44.922518], [-93.125512, 44.922186], [-93.125658, 44.922073], [-93.126455, 44.921707], [-93.127135, 44.921509], [-93.128292, 44.920743], [-93.129159, 44.920412], [-93.129513, 44.920135], [-93.129949, 44.919642], [-93.13006, 44.919568], [-93.130254, 44.919597], [-93.130254, 44.91937], [-93.130448, 44.919143], [-93.130877, 44.918753], [-93.131792, 44.91815], [-93.132228, 44.917725], [-93.132387, 44.917489], [-93.132638, 44.917597], [-93.133066, 44.916921], [-93.132927, 44.916832], [-93.132531, 44.916709], [-93.13267, 44.916448], [-93.132919, 44.91623], [-93.133265, 44.915554], [-93.133278, 44.915179], [-93.133621, 44.913571], [-93.133607, 44.913374], [-93.133682, 44.9129], [-93.133929, 44.911889], [-93.13388, 44.911692], [-93.133908, 44.911534], [-93.134288, 44.910749], [-93.134557, 44.910404], [-93.134716, 44.909999], [-93.135055, 44.909604], [-93.136266, 44.907961], [-93.13637, 44.907906], [-93.136571, 44.907635], [-93.136875, 44.907348], [-93.136958, 44.9072], [-93.138308, 44.905926], [-93.139008, 44.905476], [-93.139063, 44.905363], [-93.139452, 44.905289], [-93.139937, 44.905027], [-93.14002, 44.904943], [-93.140061, 44.904647], [-93.140483, 44.904232], [-93.140968, 44.903906], [-93.141059, 44.90397], [-93.141273, 44.903748], [-93.143844, 44.901998], [-93.145686, 44.900679], [-93.145873, 44.900502], [-93.146275, 44.900333], [-93.14633, 44.900156], [-93.147009, 44.899795], [-93.147494, 44.899622], [-93.147848, 44.899577], [-93.148902, 44.899092], [-93.149879, 44.898711], [-93.14999, 44.898602], [-93.151169, 44.898295], [-93.151828, 44.898235], [-93.152348, 44.898057], [-93.153229, 44.897991], [-93.153729, 44.898114], [-93.15427, 44.898163], [-93.154714, 44.898108], [-93.155172, 44.898147], [-93.155595, 44.898067], [-93.156414, 44.898056], [-93.157724, 44.897754], [-93.158854, 44.897352], [-93.160989, 44.896289], [-93.162333, 44.895809], [-93.163012, 44.895472], [-93.16478, 44.894942], [-93.165716, 44.894734], [-93.16677, 44.894555], [-93.166979, 44.894564], [-93.167194, 44.894677], [-93.167208, 44.894732], [-93.166938, 44.894865], [-93.16689, 44.895092], [-93.167019, 44.896423], [-93.16713, 44.896635], [-93.167248, 44.89665], [-93.167685, 44.896615], [-93.168372, 44.896451], [-93.168455, 44.896382], [-93.168544, 44.895923], [-93.168376, 44.895346], [-93.168269, 44.894678], [-93.168359, 44.894594], [-93.168557, 44.894446], [-93.169247, 44.89429], [-93.169926, 44.894225], [-93.170273, 44.894229], [-93.170433, 44.894288], [-93.170604, 44.894547], [-93.170664, 44.895077], [-93.170611, 44.895599], [-93.170625, 44.895728], [-93.170701, 44.895792], [-93.170861, 44.895791], [-93.171388, 44.895648], [-93.171533, 44.895583], [-93.171665, 44.89545], [-93.171754, 44.895223], [-93.171601, 44.894883], [-93.171572, 44.894592], [-93.171662, 44.894419], [-93.171668, 44.894281], [-93.171786, 44.894256], [-93.172258, 44.89432], [-93.174083, 44.894277], [-93.174492, 44.894346], [-93.176172, 44.894388], [-93.177907, 44.894582], [-93.179891, 44.894683], [-93.180606, 44.894627], [-93.181078, 44.89473], [-93.182008, 44.894743], [-93.18216, 44.894709], [-93.183694, 44.89483], [-93.184957, 44.894966], [-93.186555, 44.895417], [-93.187896, 44.895908], [-93.188299, 44.896242], [-93.189045, 44.897193], [-93.189532, 44.897705], [-93.189916, 44.898469], [-93.190366, 44.900293], [-93.190386, 44.901975], [-93.19031, 44.902177], [-93.190297, 44.902537], [-93.190208, 44.902863], [-93.190279, 44.903242], [-93.190384, 44.903523], [-93.190537, 44.90376], [-93.190976, 44.904228], [-93.191595, 44.904547], [-93.193646, 44.905826], [-93.194905, 44.906475], [-93.195273, 44.906741], [-93.195329, 44.906834], [-93.195718, 44.906829], [-93.198005, 44.907895], [-93.198798, 44.90849], [-93.199856, 44.909554], [-93.200031, 44.909839], [-93.200192, 44.910357], [-93.200181, 44.910998], [-93.1994, 44.912011], [-93.198812, 44.912623], [-93.199285, 44.914985], [-93.199438, 44.915132], [-93.199426, 44.915413], [-93.19996, 44.915373], [-93.199929, 44.915623], [-93.202139, 44.915384], [-93.202061, 44.914871], [-93.201992, 44.914797], [-93.201644, 44.914675], [-93.201463, 44.914512], [-93.201504, 44.914414], [-93.201754, 44.914339], [-93.201795, 44.914221], [-93.201934, 44.914068], [-93.201919, 44.914003], [-93.201711, 44.91395], [-93.20164, 44.913545], [-93.20164, 44.913383], [-93.201875, 44.913269], [-93.201931, 44.913308], [-93.201834, 44.913362], [-93.201954, 44.913944], [-93.202044, 44.913949], [-93.202333, 44.915285], [-93.202424, 44.915319], [-93.202528, 44.91529], [-93.20221, 44.913801], [-93.202203, 44.913712], [-93.202307, 44.913702], [-93.20244, 44.914062], [-93.202694, 44.91527], [-93.202778, 44.915304], [-93.202868, 44.91525], [-93.202628, 44.914273], [-93.20243, 44.913066], [-93.202415, 44.912918], [-93.202457, 44.912858], [-93.202421, 44.912691], [-93.20196, 44.911695], [-93.201777, 44.911069], [-93.201735, 44.910754], [-93.201401, 44.910508], [-93.201324, 44.910389], [-93.201267, 44.90997], [-93.201023, 44.909709], [-93.200987, 44.909458], [-93.200743, 44.90896], [-93.200721, 44.908576], [-93.200609, 44.908457], [-93.200202, 44.908223], [-93.199955, 44.907965], [-93.199253, 44.907745], [-93.198947, 44.907484], [-93.197967, 44.906918], [-93.197195, 44.90655], [-93.196848, 44.906457], [-93.195541, 44.905778], [-93.194762, 44.905434], [-93.193956, 44.904992], [-93.19333, 44.904727], [-93.193121, 44.904515], [-93.192746, 44.904304], [-93.192384, 44.903954], [-93.192084, 44.903481], [-93.191923, 44.903156], [-93.191776, 44.902648], [-93.19173, 44.901317], [-93.191795, 44.900542], [-93.191914, 44.90029], [-93.191926, 44.899911], [-93.191981, 44.899703], [-93.192438, 44.899515], [-93.192597, 44.899332], [-93.192922, 44.89874], [-93.193109, 44.898626], [-93.193164, 44.898537], [-93.193157, 44.898439], [-93.193031, 44.898227], [-93.193037, 44.897842], [-93.192806, 44.897493], [-93.191854, 44.896823], [-93.191644, 44.89639], [-93.191519, 44.896237], [-93.191331, 44.896119], [-93.190261, 44.895642], [-93.189968, 44.895347], [-93.188322, 44.894704], [-93.187822, 44.894557], [-93.186787, 44.894277], [-93.185614, 44.894032], [-93.181554, 44.893886], [-93.180652, 44.893892], [-93.180374, 44.893715], [-93.18002, 44.89375], [-93.179527, 44.893544], [-93.179, 44.893466], [-93.178563, 44.893481], [-93.177542, 44.893207], [-93.17741, 44.893123], [-93.177409, 44.892911], [-93.177762, 44.89259], [-93.178113, 44.891667], [-93.17807, 44.891199], [-93.177786, 44.890634], [-93.178015, 44.890357], [-93.17775, 44.890374], [-93.177459, 44.890459], [-93.177689, 44.891446], [-93.177662, 44.89186], [-93.177587, 44.892033], [-93.1772, 44.892606], [-93.176798, 44.892887], [-93.176591, 44.893184], [-93.176314, 44.893288], [-93.174642, 44.8933], [-93.171235, 44.893207], [-93.168848, 44.89324], [-93.167898, 44.89332], [-93.165866, 44.893658], [-93.165519, 44.893654], [-93.164548, 44.893823], [-93.16357, 44.894081], [-93.162191, 44.894625], [-93.161456, 44.894799], [-93.160812, 44.895022], [-93.157915, 44.896353], [-93.156487, 44.896848], [-93.155682, 44.896874], [-93.154766, 44.896988], [-93.15317, 44.896951], [-93.152969, 44.896981], [-93.152268, 44.896923], [-93.150881, 44.896939], [-93.150679, 44.89691], [-93.150531, 44.896657], [-93.149475, 44.896237]], [[-93.089979, 44.942234], [-93.090491, 44.941971], [-93.090935, 44.941816], [-93.092166, 44.941606], [-93.092485, 44.941668], [-93.092485, 44.941788], [-93.092317, 44.942001], [-93.092098, 44.942148], [-93.091524, 44.942388], [-93.090636, 44.942668], [-93.089024, 44.943025], [-93.088899, 44.942994], [-93.088849, 44.942932], [-93.088886, 44.942799], [-93.089979, 44.942234]], [[-93.027923, 44.89929], [-93.028148, 44.899455], [-93.028888, 44.899598], [-93.028953, 44.899735], [-93.028945, 44.899987], [-93.029017, 44.900164], [-93.029202, 44.900398], [-93.029186, 44.900507], [-93.029009, 44.900536], [-93.028897, 44.90045], [-93.02847, 44.899987], [-93.027682, 44.899358], [-93.027706, 44.899255], [-93.027794, 44.899232], [-93.027923, 44.89929]], [[-93.032532, 44.899246], [-93.031979, 44.899132], [-93.031352, 44.898907], [-93.030429, 44.898397], [-93.029861, 44.89818], [-93.030059, 44.898096], [-93.030456, 44.898138], [-93.031255, 44.898279], [-93.032381, 44.898568], [-93.032724, 44.898694], [-93.032917, 44.898835], [-93.033132, 44.899174], [-93.033079, 44.899254], [-93.032532, 44.899246]], [[-93.020866, 44.889773], [-93.022757, 44.891619], [-93.022781, 44.892071], [-93.022604, 44.892088], [-93.022411, 44.892043], [-93.021768, 44.891648], [-93.021245, 44.891231], [-93.020867, 44.891122], [-93.02073, 44.89102], [-93.020665, 44.890722], [-93.020754, 44.890614], [-93.020746, 44.890368], [-93.02044, 44.890191], [-93.020134, 44.889871], [-93.019821, 44.889231], [-93.019885, 44.889145], [-93.020102, 44.889168], [-93.020319, 44.889293], [-93.020375, 44.889396], [-93.020239, 44.889465], [-93.020191, 44.889545], [-93.020215, 44.889642], [-93.020335, 44.889762], [-93.020673, 44.889699], [-93.020866, 44.889773]], [[-93.019901, 44.888236], [-93.020448, 44.888745], [-93.02056, 44.888899], [-93.020536, 44.889019], [-93.020359, 44.889082], [-93.020126, 44.88907], [-93.019853, 44.888933], [-93.019587, 44.888653], [-93.019635, 44.88827], [-93.01974, 44.888213], [-93.019901, 44.888236]], [[-93.012153, 44.870436], [-93.012282, 44.870916], [-93.012443, 44.871294], [-93.012435, 44.871631], [-93.012564, 44.872083], [-93.013223, 44.873609], [-93.01332, 44.874032], [-93.013296, 44.874226], [-93.012894, 44.874838], [-93.012669, 44.875489], [-93.012572, 44.875615], [-93.01242, 44.875707], [-93.012074, 44.875792], [-93.011977, 44.875764], [-93.011929, 44.875667], [-93.011833, 44.875141], [-93.011664, 44.874918], [-93.011656, 44.874449], [-93.011438, 44.873632], [-93.011446, 44.873455], [-93.011615, 44.873226], [-93.011631, 44.873123], [-93.011567, 44.872923], [-93.011615, 44.872609], [-93.011535, 44.872523], [-93.01131, 44.872477], [-93.011213, 44.872368], [-93.010948, 44.871574], [-93.010988, 44.871397], [-93.01106, 44.87134], [-93.011197, 44.871357], [-93.011229, 44.871271], [-93.010964, 44.870739], [-93.010835, 44.870625], [-93.010787, 44.870488], [-93.010762, 44.870179], [-93.010698, 44.870048], [-93.010722, 44.869802], [-93.010577, 44.86963], [-93.010344, 44.869122], [-93.010063, 44.868819], [-93.010063, 44.868733], [-93.010167, 44.86855], [-93.010103, 44.86807], [-93.010288, 44.867773], [-93.01036, 44.867481], [-93.010448, 44.867441], [-93.010529, 44.867538], [-93.011052, 44.868453], [-93.011518, 44.86903], [-93.011904, 44.870065], [-93.012073, 44.870208], [-93.012153, 44.870436]], [[-93.014915, 44.863822], [-93.014787, 44.864862], [-93.014803, 44.865525], [-93.014747, 44.865685], [-93.014385, 44.866182], [-93.014007, 44.866566], [-93.013839, 44.866686], [-93.01367, 44.86668], [-93.013123, 44.866177], [-93.012842, 44.866154], [-93.012609, 44.865891], [-93.012617, 44.865788], [-93.012239, 44.865645], [-93.012183, 44.865514], [-93.012311, 44.86528], [-93.012255, 44.865154], [-93.012046, 44.864948], [-93.011772, 44.864931], [-93.011708, 44.864857], [-93.011821, 44.864714], [-93.011338, 44.864056], [-93.010944, 44.863336], [-93.010719, 44.862793], [-93.010526, 44.862564], [-93.010494, 44.86229], [-93.010381, 44.862164], [-93.010381, 44.861787], [-93.010124, 44.861164], [-93.010084, 44.860695], [-93.009907, 44.859935], [-93.009915, 44.859712], [-93.010124, 44.859043], [-93.010332, 44.857968], [-93.010284, 44.857374], [-93.010389, 44.857134], [-93.010348, 44.856888], [-93.010517, 44.856579], [-93.010702, 44.855579], [-93.010935, 44.855539], [-93.011079, 44.855602], [-93.01116, 44.855733], [-93.011449, 44.855945], [-93.011642, 44.856179], [-93.011763, 44.856591], [-93.01194, 44.856865], [-93.011883, 44.856957], [-93.011666, 44.857048], [-93.011466, 44.857334], [-93.011265, 44.858506], [-93.011056, 44.858963], [-93.011112, 44.859277], [-93.011088, 44.859552], [-93.011233, 44.859912], [-93.011273, 44.860266], [-93.011289, 44.860769], [-93.011209, 44.860924], [-93.011209, 44.861072], [-93.011297, 44.86109], [-93.011394, 44.860969], [-93.011659, 44.861758], [-93.011748, 44.861884], [-93.011852, 44.86181], [-93.011997, 44.861055], [-93.012061, 44.860346], [-93.012125, 44.858357], [-93.012076, 44.857951], [-93.012229, 44.857631], [-93.012213, 44.857488], [-93.012342, 44.857277], [-93.012719, 44.857562], [-93.014078, 44.859077], [-93.014802, 44.860106], [-93.015043, 44.860563], [-93.01534, 44.861438], [-93.015365, 44.862221], [-93.015477, 44.862461], [-93.015341, 44.862627], [-93.015035, 44.863381], [-93.014915, 44.863822]], [[-93.007487, 44.855556], [-93.007407, 44.856202], [-93.007455, 44.856448], [-93.007431, 44.856945], [-93.00731, 44.857283], [-93.007286, 44.857837], [-93.007214, 44.857969], [-93.00711, 44.857974], [-93.007045, 44.857843], [-93.007005, 44.85742], [-93.006917, 44.857168], [-93.006732, 44.856906], [-93.006724, 44.856471], [-93.006764, 44.8563], [-93.006659, 44.856025], [-93.006764, 44.855768], [-93.006716, 44.855636], [-93.006772, 44.855276], [-93.00694, 44.854973], [-93.007005, 44.854625], [-93.006973, 44.854253], [-93.006667, 44.853441], [-93.006747, 44.852824], [-93.006908, 44.852521], [-93.006996, 44.85239], [-93.007374, 44.852304], [-93.007527, 44.852304], [-93.007679, 44.852384], [-93.007816, 44.852681], [-93.007672, 44.853173], [-93.007639, 44.853504], [-93.007704, 44.85403], [-93.007792, 44.854293], [-93.00764, 44.854728], [-93.007487, 44.855556]], [[-93.010661, 44.852355], [-93.010597, 44.851966], [-93.010637, 44.851818], [-93.010701, 44.851675], [-93.010902, 44.851497], [-93.01079, 44.852526], [-93.010661, 44.852584], [-93.010661, 44.852355]], [[-93.011368, 44.849697], [-93.011103, 44.850743], [-93.010974, 44.85088], [-93.010821, 44.850806], [-93.010789, 44.850486], [-93.011054, 44.849857], [-93.011094, 44.849571], [-93.011223, 44.849502], [-93.011335, 44.849537], [-93.011368, 44.849697]], [[-93.013658, 44.849422], [-93.013473, 44.849445], [-93.012774, 44.849336], [-93.012637, 44.849239], [-93.012629, 44.849102], [-93.011962, 44.848376], [-93.011833, 44.848136], [-93.011833, 44.847988], [-93.011986, 44.847199], [-93.012395, 44.845907], [-93.012468, 44.845312], [-93.012733, 44.844609], [-93.012724, 44.843929], [-93.012893, 44.843397], [-93.012949, 44.843026], [-93.012965, 44.841425], [-93.013021, 44.840853], [-93.013101, 44.840802], [-93.013278, 44.840876], [-93.01331, 44.841031], [-93.013407, 44.841156], [-93.01364, 44.842117], [-93.013937, 44.842991], [-93.013825, 44.843054], [-93.013793, 44.843008], [-93.013704, 44.843083], [-93.013721, 44.84342], [-93.013672, 44.84366], [-93.013713, 44.84442], [-93.013625, 44.844986], [-93.013745, 44.845118], [-93.013858, 44.845038], [-93.013825, 44.844763], [-93.01393, 44.844712], [-93.013946, 44.844123], [-93.013841, 44.843511], [-93.013841, 44.843328], [-93.013921, 44.843208], [-93.013994, 44.843311], [-93.014082, 44.843671], [-93.014307, 44.843963], [-93.014275, 44.843694], [-93.014163, 44.8435], [-93.014138, 44.843323], [-93.014082, 44.842751], [-93.014138, 44.842311], [-93.014058, 44.841716], [-93.013825, 44.841219], [-93.013881, 44.840853], [-93.013848, 44.84063], [-93.01413, 44.840556], [-93.01425, 44.840596], [-93.014403, 44.840865], [-93.014363, 44.841008], [-93.0145, 44.841882], [-93.014403, 44.842414], [-93.01462, 44.842717], [-93.014693, 44.843163], [-93.014829, 44.843506], [-93.014854, 44.843826], [-93.014966, 44.844289], [-93.014942, 44.845163], [-93.015023, 44.845535], [-93.014854, 44.846175], [-93.014822, 44.84661], [-93.014838, 44.847015], [-93.014919, 44.847238], [-93.014927, 44.847513], [-93.014847, 44.84793], [-93.014646, 44.848376], [-93.014542, 44.848747], [-93.014413, 44.848936], [-93.014148, 44.849159], [-93.013658, 44.849422]], [[-93.008353, 44.843438], [-93.008739, 44.843506], [-93.008771, 44.843558], [-93.008827, 44.843701], [-93.008771, 44.843946], [-93.008835, 44.844215], [-93.008787, 44.844701], [-93.008659, 44.844941], [-93.008554, 44.845335], [-93.008506, 44.845816], [-93.008434, 44.84593], [-93.00833, 44.845981], [-93.008161, 44.845913], [-93.008016, 44.845616], [-93.008056, 44.84493], [-93.007928, 44.844541], [-93.007855, 44.843575], [-93.007863, 44.843443], [-93.007951, 44.843398], [-93.008353, 44.843438]], [[-93.009237, 44.840939], [-93.008948, 44.84206], [-93.008867, 44.842769], [-93.008803, 44.842923], [-93.008699, 44.843015], [-93.008249, 44.843032], [-93.008192, 44.842975], [-93.0082, 44.842809], [-93.008321, 44.842477], [-93.008241, 44.841991], [-93.008144, 44.841826], [-93.007196, 44.840848], [-93.007091, 44.840574], [-93.006899, 44.840334], [-93.006995, 44.840031], [-93.006858, 44.839768], [-93.006802, 44.839282], [-93.006866, 44.839196], [-93.006866, 44.83895], [-93.006939, 44.838785], [-93.007131, 44.838807], [-93.007236, 44.839007], [-93.007212, 44.839208], [-93.007364, 44.839619], [-93.007308, 44.839831], [-93.007493, 44.840094], [-93.007453, 44.840362], [-93.007517, 44.840511], [-93.00763, 44.840477], [-93.007694, 44.840368], [-93.007678, 44.839888], [-93.007397, 44.839402], [-93.007292, 44.83883], [-93.007083, 44.838653], [-93.006947, 44.838705], [-93.006834, 44.838584], [-93.006802, 44.837647], [-93.006304, 44.836721], [-93.006071, 44.836349], [-93.005934, 44.836247], [-93.00587, 44.836126], [-93.005621, 44.835395], [-93.005548, 44.834795], [-93.005982, 44.834572], [-93.006038, 44.834463], [-93.006207, 44.83436], [-93.006544, 44.834743], [-93.006609, 44.835029], [-93.006729, 44.835235], [-93.006769, 44.835743], [-93.007549, 44.836727], [-93.008023, 44.837956], [-93.008136, 44.838076], [-93.008296, 44.838036], [-93.008304, 44.836921], [-93.008352, 44.836812], [-93.008457, 44.836812], [-93.008601, 44.83783], [-93.00861, 44.838207], [-93.008802, 44.838287], [-93.008794, 44.837853], [-93.008891, 44.837733], [-93.008867, 44.837378], [-93.009019, 44.836869], [-93.008995, 44.836664], [-93.008899, 44.836435], [-93.008939, 44.835892], [-93.009083, 44.835549], [-93.009083, 44.835269], [-93.009019, 44.835109], [-93.008938, 44.834994], [-93.00873, 44.834926], [-93.008416, 44.834983], [-93.008015, 44.83464], [-93.007982, 44.834514], [-93.007878, 44.834531], [-93.007814, 44.834652], [-93.008087, 44.835012], [-93.008232, 44.835406], [-93.00824, 44.835698], [-93.00832, 44.835875], [-93.008473, 44.835863], [-93.008537, 44.835903], [-93.008569, 44.836012], [-93.008521, 44.836309], [-93.008392, 44.836481], [-93.008256, 44.836498], [-93.0082, 44.836595], [-93.008184, 44.837007], [-93.008063, 44.837218], [-93.007951, 44.83715], [-93.00791, 44.836807], [-93.007774, 44.836412], [-93.007661, 44.836269], [-93.007693, 44.836155], [-93.007766, 44.836098], [-93.007774, 44.835989], [-93.007661, 44.836023], [-93.007509, 44.835966], [-93.007525, 44.835412], [-93.007364, 44.83484], [-93.006834, 44.834354], [-93.006761, 44.834194], [-93.006777, 44.833878], [-93.006544, 44.833318], [-93.006343, 44.833089], [-93.006359, 44.832906], [-93.006255, 44.832295], [-93.006271, 44.832117], [-93.006343, 44.831997], [-93.006456, 44.832009], [-93.006858, 44.833061], [-93.006946, 44.833209], [-93.007074, 44.833243], [-93.007082, 44.833123], [-93.006865, 44.832649], [-93.006761, 44.832129], [-93.006769, 44.83198], [-93.006962, 44.83174], [-93.006865, 44.831471], [-93.006914, 44.831117], [-93.006889, 44.830957], [-93.006713, 44.830602], [-93.006897, 44.830271], [-93.006978, 44.829934], [-93.007186, 44.829608], [-93.00713, 44.828762], [-93.007186, 44.828567], [-93.00717, 44.828407], [-93.007002, 44.828447], [-93.006897, 44.828636], [-93.006833, 44.828848], [-93.006801, 44.829345], [-93.006729, 44.829568], [-93.006343, 44.830157], [-93.00607, 44.830797], [-93.006022, 44.83138], [-93.006118, 44.831883], [-93.006118, 44.83226], [-93.006022, 44.832723], [-93.00607, 44.833015], [-93.00599, 44.833083], [-93.005682, 44.832924], [-93.00558, 44.831963], [-93.005363, 44.831637], [-93.005355, 44.831363], [-93.005178, 44.830928], [-93.004937, 44.830603], [-93.004929, 44.830168], [-93.004624, 44.829568], [-93.004656, 44.829448], [-93.004825, 44.829231], [-93.005234, 44.830242], [-93.005371, 44.830265], [-93.005379, 44.830162], [-93.005186, 44.829676], [-93.005234, 44.829231], [-93.005347, 44.829151], [-93.005644, 44.829362], [-93.005757, 44.829339], [-93.00574, 44.828973], [-93.005515, 44.828247], [-93.005451, 44.82787], [-93.004945, 44.82711], [-93.004873, 44.826618], [-93.00509, 44.826338], [-93.004816, 44.826167], [-93.00472, 44.826041], [-93.004736, 44.825161], [-93.004559, 44.824635], [-93.004567, 44.824475], [-93.004623, 44.824372], [-93.004607, 44.824229], [-93.004407, 44.82396], [-93.004358, 44.823817], [-93.004447, 44.823377], [-93.004382, 44.823097], [-93.004535, 44.823103], [-93.004647, 44.82324], [-93.004864, 44.823154], [-93.005025, 44.823223], [-93.005154, 44.823377], [-93.005338, 44.824006], [-93.005154, 44.82428], [-93.005113, 44.824537], [-93.00521, 44.82484], [-93.005186, 44.825212], [-93.00529, 44.825309], [-93.005282, 44.825429], [-93.005347, 44.825566], [-93.005427, 44.825515], [-93.005483, 44.825389], [-93.005379, 44.825161], [-93.005387, 44.824686], [-93.005443, 44.82456], [-93.005563, 44.824589], [-93.00566, 44.824509], [-93.005547, 44.824292], [-93.00578, 44.823966], [-93.00574, 44.823583], [-93.005563, 44.823343], [-93.005475, 44.823097], [-93.005306, 44.822834], [-93.005105, 44.822251], [-93.005186, 44.822125], [-93.00529, 44.822068], [-93.005483, 44.822068], [-93.005571, 44.822171], [-93.00619, 44.823686], [-93.006471, 44.824692], [-93.006865, 44.825812], [-93.007122, 44.826893], [-93.007218, 44.827693], [-93.007363, 44.828196], [-93.007765, 44.829013], [-93.007998, 44.829613], [-93.0084, 44.830911], [-93.008866, 44.832134], [-93.00901, 44.832363], [-93.009308, 44.833986], [-93.009533, 44.834598], [-93.009879, 44.836044], [-93.009935, 44.836732], [-93.009806, 44.836932], [-93.009831, 44.837332], [-93.009614, 44.838967], [-93.009237, 44.840939]], [[-93.005845, 44.834366], [-93.005645, 44.834537], [-93.005452, 44.834612], [-93.005275, 44.834383], [-93.005042, 44.833827], [-93.004809, 44.833581], [-93.004447, 44.833066], [-93.003949, 44.832209], [-93.003957, 44.831803], [-93.003564, 44.830871], [-93.003475, 44.830505], [-93.003531, 44.830248], [-93.003692, 44.830082], [-93.00423, 44.830774], [-93.004568, 44.831351], [-93.004648, 44.831774], [-93.004857, 44.832175], [-93.004793, 44.83226], [-93.004761, 44.832483], [-93.004865, 44.832872], [-93.005339, 44.833598], [-93.00542, 44.833787], [-93.005404, 44.833903], [-93.005741, 44.834217], [-93.005918, 44.834309], [-93.005845, 44.834366]], [[-93.006102, 44.83412], [-93.005685, 44.833787], [-93.005644, 44.833569], [-93.005379, 44.833169], [-93.005371, 44.833032], [-93.005419, 44.832963], [-93.005548, 44.833032], [-93.005661, 44.833026], [-93.005829, 44.833175], [-93.006118, 44.833249], [-93.006215, 44.833392], [-93.006215, 44.833741], [-93.006279, 44.833891], [-93.006287, 44.83412], [-93.006239, 44.834166], [-93.006102, 44.83412]], [[-93.00407, 44.829311], [-93.003708, 44.829797], [-93.003596, 44.829865], [-93.003427, 44.829882], [-93.003154, 44.829419], [-93.003106, 44.829202], [-93.002768, 44.828996], [-93.002431, 44.828613], [-93.002375, 44.82851], [-93.002439, 44.828282], [-93.002383, 44.82803], [-93.002093, 44.827624], [-93.001949, 44.827333], [-93.001965, 44.827167], [-93.002391, 44.826675], [-93.002656, 44.826212], [-93.002672, 44.826007], [-93.002832, 44.825841], [-93.002881, 44.825709], [-93.002953, 44.825715], [-93.003017, 44.825875], [-93.0028, 44.826361], [-93.002776, 44.826858], [-93.002688, 44.827167], [-93.00317, 44.82819], [-93.003419, 44.828305], [-93.003435, 44.828453], [-93.00366, 44.828785], [-93.003788, 44.828739], [-93.003829, 44.828648], [-93.003764, 44.828516], [-93.003821, 44.828259], [-93.003692, 44.82815], [-93.003282, 44.828025], [-93.00313, 44.827882], [-93.002889, 44.827133], [-93.002993, 44.827024], [-93.003138, 44.82699], [-93.003274, 44.827001], [-93.003403, 44.827116], [-93.003507, 44.827264], [-93.003507, 44.827384], [-93.003571, 44.827493], [-93.003837, 44.827699], [-93.003901, 44.827613], [-93.004126, 44.827573], [-93.004262, 44.82767], [-93.004415, 44.827944], [-93.004447, 44.82807], [-93.004415, 44.828213], [-93.004519, 44.828636], [-93.004471, 44.828779], [-93.004126, 44.829173], [-93.00407, 44.829311]], [[-93.002463, 44.824686], [-93.002399, 44.824829], [-93.002407, 44.824961], [-93.002535, 44.825092], [-93.002559, 44.825212], [-93.002383, 44.825532], [-93.002278, 44.825612], [-93.001579, 44.825384], [-93.001266, 44.825184], [-93.001258, 44.825069], [-93.001395, 44.824961], [-93.001756, 44.825006], [-93.001973, 44.824835], [-93.002174, 44.824783], [-93.002382, 44.8246], [-93.002463, 44.824686]], [[-93.004422, 44.820233], [-93.004438, 44.82045], [-93.004864, 44.821708], [-93.004816, 44.821942], [-93.004736, 44.822034], [-93.004503, 44.821839], [-93.004431, 44.821685], [-93.004519, 44.821422], [-93.004125, 44.821056], [-93.004085, 44.820479], [-93.004342, 44.820159], [-93.004422, 44.820233]], [[-93.00688, 44.815483], [-93.007361, 44.816334], [-93.007538, 44.816551], [-93.00753, 44.817152], [-93.007723, 44.817889], [-93.007876, 44.818181], [-93.007948, 44.818661], [-93.007932, 44.818907], [-93.007804, 44.819393], [-93.007707, 44.819467], [-93.007571, 44.819335], [-93.007539, 44.819181], [-93.007418, 44.819067], [-93.007466, 44.818975], [-93.007289, 44.818569], [-93.007281, 44.818444], [-93.007105, 44.818232], [-93.007161, 44.818106], [-93.007137, 44.817969], [-93.007024, 44.817855], [-93.006992, 44.817598], [-93.006791, 44.81722], [-93.006687, 44.8157], [-93.006775, 44.815443], [-93.00688, 44.815483]], [[-93.022081, 44.790843], [-93.022266, 44.791191], [-93.022314, 44.79146], [-93.02221, 44.792546], [-93.021857, 44.793667], [-93.021793, 44.793793], [-93.021673, 44.79389], [-93.0216, 44.793833], [-93.021536, 44.792706], [-93.02156, 44.792535], [-93.021696, 44.792232], [-93.021849, 44.792038], [-93.021969, 44.791546], [-93.021985, 44.791106], [-93.021928, 44.790849], [-93.021985, 44.790791], [-93.022081, 44.790843]], [[-93.02273, 44.78815], [-93.022907, 44.788282], [-93.023051, 44.788567], [-93.023437, 44.789671], [-93.023429, 44.790002], [-93.023341, 44.790162], [-93.022972, 44.790482], [-93.022755, 44.790351], [-93.022707, 44.790191], [-93.022779, 44.790042], [-93.02257, 44.789779], [-93.022385, 44.789111], [-93.022353, 44.788625], [-93.022433, 44.788127], [-93.022546, 44.788093], [-93.02273, 44.78815]], [[-92.984896, 44.772731], [-92.986357, 44.773212], [-92.988523, 44.773726], [-92.988539, 44.773818], [-92.987625, 44.774104], [-92.987336, 44.774149], [-92.986774, 44.774121], [-92.986389, 44.773978], [-92.986308, 44.774092], [-92.985963, 44.774246], [-92.98565, 44.774252], [-92.984759, 44.774138], [-92.983829, 44.77396], [-92.98366, 44.773869], [-92.98366, 44.773726], [-92.9835, 44.7736], [-92.982264, 44.773234], [-92.979736, 44.772285], [-92.977626, 44.771867], [-92.977345, 44.771678], [-92.97712, 44.771621], [-92.976278, 44.771518], [-92.975957, 44.771358], [-92.97582, 44.771163], [-92.975572, 44.771101], [-92.974769, 44.770929], [-92.974769, 44.771083], [-92.973806, 44.770803], [-92.973702, 44.770528], [-92.973502, 44.770311], [-92.973421, 44.770145], [-92.973414, 44.769911], [-92.973542, 44.76966], [-92.973622, 44.76966], [-92.97367, 44.770003], [-92.973767, 44.77014], [-92.973815, 44.770117], [-92.973791, 44.769905], [-92.973863, 44.769785], [-92.97404, 44.769677], [-92.974232, 44.769631], [-92.974497, 44.769654], [-92.974649, 44.769608], [-92.974714, 44.769471], [-92.974826, 44.769408], [-92.974979, 44.769397], [-92.975163, 44.769506], [-92.975235, 44.76962], [-92.975653, 44.769671], [-92.975837, 44.76974], [-92.976278, 44.770106], [-92.976455, 44.770186], [-92.976495, 44.770163], [-92.976439, 44.77006], [-92.976575, 44.770038], [-92.976848, 44.770089], [-92.977313, 44.770272], [-92.977707, 44.770529], [-92.978011, 44.770649], [-92.978533, 44.770712], [-92.978942, 44.770964], [-92.979351, 44.771038], [-92.979408, 44.770953], [-92.979568, 44.770924], [-92.979993, 44.771073], [-92.980531, 44.771462], [-92.980643, 44.77145], [-92.980756, 44.771353], [-92.9809, 44.77141], [-92.980932, 44.771553], [-92.98102, 44.771662], [-92.981197, 44.77177], [-92.98216, 44.772091], [-92.982433, 44.772268], [-92.982368, 44.772331], [-92.98224, 44.772354], [-92.981911, 44.772274], [-92.981935, 44.772417], [-92.982697, 44.772834], [-92.983379, 44.773137], [-92.983765, 44.773234], [-92.983829, 44.773103], [-92.983556, 44.772908], [-92.983436, 44.772731], [-92.983452, 44.772565], [-92.983564, 44.772411], [-92.983773, 44.772348], [-92.984134, 44.772354], [-92.984896, 44.772731]], [[-92.966443, 44.771413], [-92.966933, 44.77167], [-92.967751, 44.771836], [-92.968112, 44.772231], [-92.967999, 44.772288], [-92.967743, 44.772299], [-92.966081, 44.772276], [-92.965448, 44.772213], [-92.965367, 44.772121], [-92.965239, 44.772075], [-92.964533, 44.772201], [-92.964332, 44.772184], [-92.964148, 44.772092], [-92.963409, 44.771932], [-92.963129, 44.7718], [-92.96296, 44.771646], [-92.962639, 44.771509], [-92.962567, 44.771423], [-92.963001, 44.77104], [-92.963859, 44.770794], [-92.964164, 44.770777], [-92.965216, 44.770984], [-92.96532, 44.771098], [-92.965352, 44.771212], [-92.965304, 44.771435], [-92.966194, 44.771361], [-92.966443, 44.771413]], [[-92.944454, 44.772284], [-92.944261, 44.772284], [-92.943299, 44.771981], [-92.943459, 44.771718], [-92.943676, 44.771495], [-92.944672, 44.770707], [-92.94505, 44.770232], [-92.945331, 44.770095], [-92.946021, 44.769907], [-92.94619, 44.769764], [-92.948028, 44.769365], [-92.948341, 44.769337], [-92.948573, 44.769371], [-92.948653, 44.76952], [-92.948605, 44.769662], [-92.948396, 44.769731], [-92.948035, 44.769731], [-92.94773, 44.769805], [-92.947321, 44.76969], [-92.947008, 44.769707], [-92.945547, 44.770433], [-92.945402, 44.770656], [-92.944872, 44.771844], [-92.944606, 44.772182], [-92.944454, 44.772284]], [[-92.950467, 44.769555], [-92.950499, 44.769337], [-92.950748, 44.769057], [-92.951086, 44.768509], [-92.951206, 44.768372], [-92.951359, 44.768286], [-92.951937, 44.768132], [-92.952675, 44.768121], [-92.953557, 44.768327], [-92.953678, 44.768499], [-92.953629, 44.768693], [-92.953364, 44.769064], [-92.952176, 44.769555], [-92.951871, 44.769624], [-92.951382, 44.769561], [-92.950483, 44.769635], [-92.950467, 44.769555]], [[-92.954568, 44.769191], [-92.954552, 44.769059], [-92.954857, 44.768705], [-92.954689, 44.768385], [-92.954697, 44.768202], [-92.954641, 44.76807], [-92.954432, 44.768001], [-92.953823, 44.768007], [-92.952876, 44.767698], [-92.953301, 44.767549], [-92.953799, 44.767532], [-92.956102, 44.767996], [-92.956767, 44.768294], [-92.957088, 44.768528], [-92.95765, 44.768763], [-92.958308, 44.768992], [-92.959094, 44.769192], [-92.959134, 44.769295], [-92.959086, 44.769387], [-92.958805, 44.769421], [-92.958508, 44.769381], [-92.957842, 44.769186], [-92.957657, 44.769798], [-92.957777, 44.769878], [-92.958138, 44.769792], [-92.958644, 44.769815], [-92.958772, 44.769752], [-92.959222, 44.76973], [-92.959623, 44.769615], [-92.959864, 44.769616], [-92.95992, 44.769678], [-92.959743, 44.769907], [-92.959214, 44.770124], [-92.957946, 44.770244], [-92.957263, 44.770381], [-92.956115, 44.770786], [-92.955482, 44.770677], [-92.955281, 44.77094], [-92.954928, 44.771054], [-92.954856, 44.770831], [-92.954904, 44.770403], [-92.954992, 44.770265], [-92.955097, 44.770191], [-92.955305, 44.770151], [-92.955779, 44.769688], [-92.956197, 44.769517], [-92.956141, 44.769363], [-92.955788, 44.769345], [-92.955523, 44.769248], [-92.955114, 44.769196], [-92.954568, 44.769191]], [[-92.96731, 44.768677], [-92.967013, 44.768425], [-92.967053, 44.768236], [-92.966765, 44.768076], [-92.966829, 44.768002], [-92.967014, 44.767996], [-92.967078, 44.767951], [-92.967054, 44.767865], [-92.967094, 44.767848], [-92.968017, 44.768071], [-92.968209, 44.768185], [-92.968795, 44.768694], [-92.969228, 44.768877], [-92.969372, 44.768997], [-92.96946, 44.769112], [-92.969412, 44.769146], [-92.969516, 44.769312], [-92.969709, 44.76946], [-92.969917, 44.769718], [-92.970599, 44.770049], [-92.970575, 44.770107], [-92.970126, 44.770232], [-92.969845, 44.770215], [-92.969612, 44.770124], [-92.969484, 44.769998], [-92.968818, 44.769986], [-92.968104, 44.769734], [-92.965753, 44.769334], [-92.96548, 44.769231], [-92.965352, 44.769128], [-92.965376, 44.769019], [-92.965464, 44.768945], [-92.965737, 44.768922], [-92.966636, 44.769008], [-92.966395, 44.768859], [-92.966363, 44.768756], [-92.966548, 44.768728], [-92.967398, 44.769008], [-92.96747, 44.768797], [-92.96731, 44.768677]], [[-92.981598, 44.771296], [-92.981438, 44.771125], [-92.981887, 44.771233], [-92.983412, 44.771902], [-92.983733, 44.772074], [-92.983741, 44.772194], [-92.983356, 44.772365], [-92.982882, 44.772279], [-92.98204, 44.771553], [-92.981598, 44.771296]], [[-92.984672, 44.772303], [-92.984078, 44.771908], [-92.984383, 44.771937], [-92.984583, 44.772022], [-92.985121, 44.772366], [-92.985161, 44.77248], [-92.984944, 44.772508], [-92.98476, 44.772423], [-92.984672, 44.772303]], [[-92.877756, 44.767053], [-92.877815, 44.767181], [-92.877712, 44.767279], [-92.877695, 44.767449], [-92.877549, 44.767565], [-92.877361, 44.767577], [-92.877155, 44.767516], [-92.877087, 44.767339], [-92.877105, 44.767052], [-92.877396, 44.766998], [-92.877756, 44.767053]], [[-92.876655, 44.765296], [-92.876826, 44.765375], [-92.877023, 44.765595], [-92.877245, 44.765644], [-92.877151, 44.765808], [-92.876911, 44.765802], [-92.876578, 44.765418], [-92.876415, 44.765393], [-92.876407, 44.765295], [-92.876655, 44.765296]], [[-92.943011, 44.777874], [-92.943052, 44.777758], [-92.943739, 44.777482], [-92.94395, 44.777433], [-92.944209, 44.777482], [-92.944338, 44.777632], [-92.944365, 44.777967], [-92.944426, 44.778107], [-92.944324, 44.778621], [-92.944242, 44.778684], [-92.944092, 44.778597], [-92.944092, 44.778495], [-92.943752, 44.778422], [-92.943725, 44.778306], [-92.943834, 44.777966], [-92.943685, 44.777884], [-92.943385, 44.778141], [-92.943317, 44.778393], [-92.943732, 44.778592], [-92.943691, 44.77865], [-92.943344, 44.77878], [-92.943235, 44.778683], [-92.943276, 44.778572], [-92.94318, 44.778509], [-92.94301, 44.778717], [-92.942806, 44.778804], [-92.941942, 44.77892], [-92.941792, 44.778857], [-92.941901, 44.778625], [-92.941752, 44.778445], [-92.941772, 44.778339], [-92.941983, 44.778193], [-92.942453, 44.778005], [-92.942596, 44.778014], [-92.942766, 44.778145], [-92.943011, 44.778131], [-92.943099, 44.778024], [-92.943011, 44.777874]], [[-92.933099, 44.778448], [-92.933118, 44.778579], [-92.933002, 44.778697], [-92.93277, 44.778841], [-92.932237, 44.779041], [-92.931908, 44.779364], [-92.931714, 44.779475], [-92.931337, 44.779619], [-92.93092, 44.779853], [-92.929671, 44.780204], [-92.929468, 44.780211], [-92.929313, 44.780107], [-92.929391, 44.780011], [-92.929953, 44.779797], [-92.930427, 44.779722], [-92.93062, 44.779639], [-92.930669, 44.779502], [-92.930805, 44.779384], [-92.930592, 44.779309], [-92.930156, 44.779549], [-92.930001, 44.779522], [-92.929566, 44.779287], [-92.929402, 44.779018], [-92.929266, 44.778942], [-92.92886, 44.778977], [-92.928792, 44.779066], [-92.929034, 44.779225], [-92.928753, 44.779294], [-92.928579, 44.779231], [-92.928618, 44.779073], [-92.928812, 44.778928], [-92.929867, 44.778619], [-92.931057, 44.778433], [-92.932209, 44.778448], [-92.932451, 44.778407], [-92.932683, 44.778448], [-92.932809, 44.778366], [-92.932993, 44.778352], [-92.933099, 44.778448]], [[-92.9984, 44.774665], [-92.99852, 44.774557], [-92.998865, 44.774517], [-92.99909, 44.774608], [-92.999066, 44.774768], [-92.998865, 44.7749], [-92.9986, 44.774957], [-92.998408, 44.774928], [-92.998328, 44.774843], [-92.9984, 44.774665]], [[-93.007934, 44.774905], [-93.008111, 44.774642], [-93.008295, 44.774465], [-93.008472, 44.774436], [-93.008608, 44.774574], [-93.00864, 44.774688], [-93.008424, 44.774928], [-93.008392, 44.775065], [-93.008287, 44.775168], [-93.008071, 44.77526], [-93.007902, 44.775248], [-93.007798, 44.775163], [-93.007934, 44.774905]], [[-92.993023, 44.775849], [-92.993368, 44.775694], [-92.994202, 44.775603], [-92.99474, 44.775386], [-92.995077, 44.775323], [-92.995382, 44.775334], [-92.995888, 44.775506], [-92.996016, 44.775637], [-92.995984, 44.775786], [-92.995848, 44.775837], [-92.995422, 44.775832], [-92.99519, 44.775757], [-92.994973, 44.775826], [-92.99466, 44.776134], [-92.994371, 44.776209], [-92.992685, 44.776449], [-92.991987, 44.77646], [-92.99165, 44.776409], [-92.991425, 44.776477], [-92.991249, 44.776443], [-92.991265, 44.776351], [-92.991409, 44.776226], [-92.991787, 44.776094], [-92.992389, 44.775906], [-92.993023, 44.775849]], [[-93.191668, 44.899403], [-93.19078, 44.897397], [-93.190487, 44.896954], [-93.190104, 44.896506], [-93.189937, 44.896378], [-93.189735, 44.896023], [-93.189797, 44.895949], [-93.189887, 44.895939], [-93.190394, 44.896155], [-93.191082, 44.896549], [-93.191563, 44.896967], [-93.192049, 44.897292], [-93.192398, 44.897888], [-93.192663, 44.898178], [-93.192803, 44.898454], [-93.192507, 44.899264], [-93.192293, 44.899451], [-93.191967, 44.899585], [-93.191814, 44.899605], [-93.191668, 44.899403]], [[-93.200405, 44.913641], [-93.200161, 44.91341], [-93.200119, 44.913301], [-93.200146, 44.913074], [-93.20043, 44.912862], [-93.200451, 44.912758], [-93.200596, 44.91262], [-93.20081, 44.91224], [-93.2009, 44.91219], [-93.201053, 44.912284], [-93.201102, 44.912387], [-93.201229, 44.913137], [-93.201216, 44.913334], [-93.201126, 44.913408], [-93.200786, 44.913493], [-93.200697, 44.91366], [-93.200607, 44.91371], [-93.200405, 44.913641]]]}, "properties": {"GNIS_NAME": null, "FTYPE": 460, "FCODE": 46006}}]}